{"type":"FeatureCollection","features":[{"type":"Feature","properties":{},"geometry":{"type":"LineString","coordinates":[[32.638612,52.28686],[32.654139,52.271159],[32.647929,52.247403],[32.627195,52.236337],[32.577031,52.176531],[32.59449,52.171562],[32.603026,52.16558],[32.610414,52.164676],[32.615383,52.165423],[32.620633,52.164963],[32.621851,52.163008],[32.624007,52.16157],[32.635191,52.160174],[32.638574,52.157972],[32.653662,52.157402],[32.659233,52.156548],[32.708209,52.140026],[32.718422,52.13105],[32.720511,52.120505],[32.731502,52.11278],[32.753553,52.105367],[32.773283,52.099664],[32.785817,52.092676],[32.795208,52.082073],[32.808903,52.091772],[32.850475,52.065549],[32.853028,52.053847],[32.867188,52.049565],[32.919414,52.066976],[32.932504,52.067408],[32.987993,52.058562],[32.992936,52.059913],[33.016004,52.047248],[33.022045,52.040829],[33.076694,52.03441],[33.112119,52.020217],[33.135554,52.020106],[33.182514,52.009627],[33.199265,52.009796],[33.212447,52.000329],[33.241927,51.99195],[33.251233,51.992251],[33.263967,51.996926],[33.265383,51.996675],[33.265373,51.996306],[33.264621,51.995931],[33.263976,51.995438],[33.264288,51.993667],[33.266038,51.992859],[33.267101,51.991936],[33.269378,51.972674],[33.270315,51.94715],[33.271737,51.942695],[33.269783,51.933533],[33.274048,51.927029],[33.274048,51.920307],[33.280263,51.915894],[33.29211,51.905662],[33.3209,51.900253],[33.340766,51.888472],[33.349296,51.877868],[33.362447,51.87326],[33.370503,51.872383],[33.376901,51.867116],[33.389104,51.863897],[33.390881,51.864263],[33.398463,51.862507],[33.407467,51.860824],[33.427608,51.860604],[33.432466,51.862068],[33.437204,51.864775],[33.44763,51.866604],[33.456634,51.866969],[33.46803,51.864943],[33.472495,51.864281],[33.471155,51.862737],[33.471557,51.8618],[33.47303,51.861055],[33.485708,51.857017],[33.493448,51.858922],[33.494416,51.859669],[33.498719,51.856576],[33.505612,51.85848],[33.511115,51.856389],[33.514998,51.856105],[33.518747,51.854013],[33.520743,51.853266],[33.521952,51.850689],[33.522013,51.849082],[33.523948,51.847775],[33.52685,51.847738],[33.528785,51.846617],[33.532293,51.847103],[33.53586,51.846169],[33.539851,51.845982],[33.542996,51.844674],[33.551936,51.843177],[33.561309,51.845045],[33.586815,51.839881],[33.617737,51.830411],[33.718136,51.809915],[33.773798,51.779252],[33.797492,51.758675],[33.83247,51.753968],[33.854781,51.739096],[33.861776,51.731184],[33.87668,51.730996],[33.908114,51.688648],[33.909635,51.675635],[33.910197,51.673957],[33.913181,51.673812],[33.914117,51.666119],[33.921914,51.636768],[33.920174,51.613208],[33.9318,51.593245],[33.941201,51.586323],[33.949209,51.562087],[33.936675,51.535455],[33.93946,51.528741],[33.918221,51.510975],[33.913929,51.494058],[33.926463,51.479532],[33.930293,51.475628],[33.929597,51.466519],[33.924026,51.460445],[33.908706,51.450682],[33.915669,51.43332],[33.922705,51.41766],[33.929136,51.394194],[33.922581,51.373739],[33.910663,51.362205],[33.882655,51.348064]]}},{"type":"Feature","properties":{},"geometry":{"type":"LineString","coordinates":[[33.177154,52.010823],[33.213737,52.05629],[33.204826,52.096977],[33.208645,52.117306],[33.229014,52.132938],[33.241745,52.158329],[33.257658,52.172775],[33.274097,52.186518],[33.277279,52.233715],[33.276643,52.264502],[33.282372,52.280082],[33.274733,52.301496],[33.244179,52.368772]]}},{"type":"Feature","properties":{},"geometry":{"type":"LineString","coordinates":[[33.909424,51.678383],[33.912228,51.678484],[33.912255,51.677731],[33.928244,51.678367],[33.948104,51.670237],[33.957731,51.670933],[33.961903,51.669639],[33.968642,51.669838],[33.972493,51.668346],[33.982795,51.668764],[33.995631,51.66767],[34.006221,51.664584],[34.018094,51.661698],[34.020661,51.657717],[34.025796,51.655627],[34.029486,51.654133],[34.032053,51.652043],[34.04789,51.647652],[34.059282,51.646059],[34.080783,51.647652],[34.103727,51.649444],[34.111429,51.649145]]}},{"type":"Feature","properties":{},"geometry":{"type":"LineString","coordinates":[[34.31552,51.874792],[34.25,51.844095],[34.033106,51.785433],[33.825249,51.695196],[33.708708,51.661258],[33.376589,51.519488],[33.34044,51.492066],[33.21686,51.435047],[33.064356,51.402641],[32.990929,51.361749],[32.92202,51.347639],[32.890389,51.327879],[32.45795,51.222164],[32.199311,51.191649],[31.915767,51.140646],[31.808449,51.134976],[31.731633,51.142064],[31.704521,51.137102]]}}]}