{"type":"FeatureCollection", "features": [
{"type":"Feature","geometry":{"type":"MultiPolygon","coordinates":[[[[29.6876,45.2138],[29.683,45.2124],[29.6841,45.209],[29.6895,45.2089],[29.6876,45.2138]]],[[[29.7642,45.2178],[29.7654,45.2179],[29.7647,45.2188],[29.762,45.2182],[29.7642,45.2178]]],[[[29.7597,45.2262],[29.7531,45.2283],[29.7482,45.2274],[29.7447,45.2251],[29.7597,45.2262]]],[[[29.7471,45.2284],[29.7481,45.2292],[29.7476,45.2298],[29.7464,45.2295],[29.7471,45.2284]]],[[[29.7472,45.2305],[29.7491,45.2304],[29.7489,45.2321],[29.7472,45.2316],[29.7472,45.2305]]],[[[29.7432,45.2382],[29.7458,45.2375],[29.7445,45.2394],[29.7433,45.2397],[29.7432,45.2382]]],[[[30.2088,45.2578],[30.2081,45.259],[30.2016,45.258],[30.2064,45.254],[30.2088,45.2578]]],[[[29.7789,45.4564],[29.7766,45.4376],[29.7808,45.4409],[29.7822,45.4581],[29.7789,45.4564]]],[[[29.6399,45.4776],[29.6368,45.4778],[29.6319,45.4771],[29.6472,45.4735],[29.6399,45.4776]]],[[[29.7156,45.468],[29.7282,45.4728],[29.7498,45.4934],[29.7087,45.4699],[29.7156,45.468]]],[[[31.9698,46.2009],[31.9707,46.1974],[31.9719,46.2021],[31.9668,46.2029],[31.9698,46.2009]]],[[[31.7186,46.2398],[31.7206,46.24],[31.7199,46.2429],[31.7166,46.2482],[31.7186,46.2398]]],[[[31.8268,46.2642],[31.8272,46.2652],[31.8257,46.2645],[31.8261,46.2641],[31.8268,46.2642]]],[[[31.8299,46.2654],[31.8334,46.2653],[31.8289,46.2701],[31.8273,46.2693],[31.8299,46.2654]]],[[[31.8522,46.2683],[31.8496,46.2686],[31.847,46.269],[31.8457,46.2681],[31.8522,46.2683]]],[[[31.8453,46.2692],[31.8477,46.2698],[31.8479,46.2703],[31.8459,46.2715],[31.8453,46.2692]]],[[[31.5226,46.3658],[31.5125,46.3354],[31.5231,46.3026],[31.5646,46.2646],[31.615,46.2403],[31.8547,46.1948],[32.0207,46.1767],[31.6409,46.2354],[31.6778,46.2496],[31.6172,46.2448],[31.5511,46.279],[31.5355,46.3052],[31.535,46.3659],[31.5226,46.3658]]],[[[31.7347,46.2733],[31.733,46.2788],[31.7296,46.2726],[31.7396,46.2707],[31.7347,46.2733]]],[[[31.8913,46.2797],[31.8926,46.2802],[31.8925,46.2806],[31.8908,46.2808],[31.8913,46.2797]]],[[[31.7566,46.3042],[31.7573,46.303],[31.7594,46.3057],[31.7589,46.3071],[31.7566,46.3042]]],[[[31.8919,46.3044],[31.8896,46.3086],[31.8865,46.31],[31.8815,46.3063],[31.8919,46.3044]]],[[[31.76,46.3093],[31.7608,46.3081],[31.765,46.3119],[31.7646,46.3127],[31.76,46.3093]]],[[[31.7708,46.314],[31.7735,46.316],[31.7716,46.3179],[31.7658,46.3134],[31.7708,46.314]]],[[[31.9064,46.3379],[31.9138,46.3381],[31.9037,46.3387],[31.8881,46.3341],[31.9064,46.3379]]],[[[31.9162,46.3358],[31.9218,46.3367],[31.9179,46.3376],[31.915,46.3365],[31.9162,46.3358]]],[[[31.9272,46.338],[31.9316,46.3384],[31.9339,46.3394],[31.9244,46.3379],[31.9272,46.338]]],[[[31.7764,46.3735],[31.7479,46.4059],[31.7304,46.4249],[31.729,46.4206],[31.7506,46.3872],[31.7646,46.3726],[31.7758,46.3694],[31.7635,46.3765],[31.7764,46.3735]]],[[[31.726,46.4233],[31.7243,46.4255],[31.7203,46.4273],[31.7234,46.4231],[31.726,46.4233]]],[[[31.7022,46.4408],[31.7067,46.4397],[31.7047,46.442],[31.7022,46.4416],[31.7022,46.4408]]],[[[31.9516,46.4443],[31.9593,46.44],[31.9712,46.4397],[31.9774,46.4423],[31.969,46.4411],[31.9516,46.4443]]],[[[31.9951,46.5039],[31.9906,46.5019],[31.9925,46.4967],[31.9967,46.4997],[31.9951,46.5039]]],[[[35.2686,46.2503],[35.4529,46.4386],[35.5999,46.4891],[35.7255,46.5853],[35.8396,46.6281],[35.8326,46.669],[35.8537,46.6545],[35.8515,46.6371],[35.9319,46.6615],[36.0394,46.6701],[36.1143,46.658],[36.1902,46.674],[36.2514,46.6364],[36.2594,46.5953],[36.266,46.6196],[36.2605,46.6367],[36.269,46.6346],[36.2721,46.6148],[36.2828,46.6384],[36.2681,46.6476],[36.295,46.6428],[36.2669,46.5986],[36.2239,46.5492],[36.1634,46.5097],[36.1555,46.538],[36.1479,46.5082],[36.1094,46.499],[36.1122,46.4891],[36.1722,46.5035],[36.2194,46.5417],[36.2485,46.5706],[36.3201,46.6661],[36.3025,46.6506],[36.2984,46.6626],[36.3333,46.6883],[36.3255,46.6703],[36.413,46.7251],[36.6284,46.7804],[36.7349,46.7767],[36.8147,46.7326],[36.8296,46.7014],[36.7784,46.647],[36.7604,46.6571],[36.7491,46.6336],[36.7677,46.6325],[36.7975,46.6544],[36.8339,46.6993],[36.9125,46.8198],[36.9915,46.8654],[37.0624,46.8826],[37.2378,46.95],[37.3174,46.9125],[37.3286,46.8868],[37.2917,46.8681],[37.309,46.8715],[37.3361,46.8891],[37.4323,46.9788],[37.5151,47.0661],[37.5225,47.0519],[37.5037,47.0499],[37.5221,47.0503],[37.5246,47.0542],[37.518,47.0621],[37.52,47.0714],[37.5747,47.0857],[37.5738,47.0983],[37.5828,47.0887],[37.5835,47.0814],[37.6289,47.0947],[37.7083,47.0798],[37.8904,47.1111],[37.9791,47.0866],[37.9822,47.0976],[38.0318,47.0901],[38.0645,47.1126],[38.1028,47.102],[38.1352,47.0646],[38.091,47.0242],[38.1467,47.0549],[38.2303,47.1193],[38.2336,47.2306],[38.2883,47.2386],[38.288,47.2563],[38.3335,47.2692],[38.3226,47.2812],[38.3365,47.3061],[38.2208,47.3054],[38.2209,47.3269],[38.2512,47.3691],[38.2868,47.3735],[38.287,47.3914],[38.3028,47.3915],[38.2851,47.5439],[38.3066,47.5446],[38.3111,47.5762],[38.3508,47.5763],[38.3503,47.617],[38.4565,47.6174],[38.4566,47.6441],[38.6165,47.6442],[38.6286,47.6692],[38.6653,47.6695],[38.6656,47.6988],[38.7725,47.6856],[38.7701,47.723],[38.7893,47.737],[38.7966,47.7738],[38.7839,47.7884],[38.7896,47.8154],[38.8284,47.8153],[38.8264,47.8455],[38.8429,47.8653],[38.8795,47.8763],[39.0736,47.8694],[39.1099,47.8424],[39.3586,47.8726],[39.3874,47.871],[39.4123,47.8297],[39.439,47.8393],[39.4409,47.8549],[39.4777,47.8604],[39.5212,47.8258],[39.6254,47.8391],[39.7382,47.8279],[39.7636,47.8467],[39.7636,47.8712],[39.7955,47.8707],[39.7941,47.9192],[39.8068,47.9506],[39.8249,47.9554],[39.8157,48.0011],[39.7765,48.0395],[39.8837,48.0412],[39.8342,48.0671],[39.8693,48.0791],[39.8709,48.1168],[39.9031,48.1403],[39.91,48.1797],[39.9368,48.1807],[39.9421,48.2287],[40.0096,48.2248],[40.0206,48.2535],[39.9893,48.3168],[39.9163,48.27],[39.8873,48.3091],[39.8411,48.3096],[39.8457,48.3329],[39.9468,48.3541],[39.9324,48.363],[39.9414,48.3869],[39.924,48.375],[39.907,48.3898],[39.9186,48.3978],[39.8897,48.4411],[39.8984,48.4475],[39.8463,48.4738],[39.847,48.5008],[39.8668,48.5078],[39.854,48.5629],[39.7916,48.5926],[39.6893,48.5863],[39.6605,48.6094],[39.7164,48.6551],[39.7024,48.6688],[39.723,48.6838],[39.7043,48.7207],[39.7385,48.7438],[39.7254,48.7509],[39.7438,48.7703],[39.7684,48.7663],[39.8004,48.8423],[39.976,48.7929],[40.0807,48.8702],[40.061,48.9088],[40.0359,48.9158],[40.0041,48.9013],[39.9933,48.868],[39.9244,48.896],[39.8524,48.8905],[39.8384,48.9031],[39.8272,48.8862],[39.8231,48.9043],[39.7755,48.9225],[39.7781,48.9518],[39.7531,48.9862],[39.727,48.9755],[39.7008,49.0002],[39.6772,48.9893],[39.6632,49.001],[39.6851,49.035],[39.672,49.0404],[39.6925,49.0504],[39.7673,49.0402],[39.8053,49.06],[39.9381,49.0563],[39.938,49.0823],[40.031,49.1794],[40.0774,49.1869],[40.1367,49.2395],[40.222,49.2509],[40.2272,49.2605],[40.186,49.2813],[40.2003,49.346],[40.1142,49.3857],[40.0295,49.4536],[40.039,49.5205],[40.1696,49.5688],[40.1357,49.6165],[40.0648,49.5988],[39.9521,49.5971],[39.9346,49.5735],[39.8913,49.5583],[39.806,49.558],[39.7503,49.5974],[39.6579,49.6167],[39.5913,49.7183],[39.6105,49.7337],[39.4436,49.76],[39.3787,49.7385],[39.2853,49.7554],[39.2509,49.7766],[39.2278,49.8074],[39.2267,49.8398],[39.1792,49.8884],[39.0677,49.8155],[39.0268,49.8222],[38.9309,49.7969],[38.9068,49.8271],[38.9182,49.8592],[38.9016,49.8693],[38.7913,49.8786],[38.694,49.9349],[38.6858,49.9615],[38.718,49.9835],[38.6865,50.0079],[38.6801,49.9745],[38.6474,49.9559],[38.5826,49.9774],[38.5273,49.9586],[38.4887,49.9633],[38.4651,49.983],[38.4693,49.9954],[38.4341,50.0014],[38.4163,49.9816],[38.3506,50.0064],[38.3293,50.0858],[38.2559,50.0726],[38.1777,50.0796],[38.1859,50.0227],[38.2224,49.9788],[38.1266,49.9218],[38.1245,49.9427],[38.0457,49.9155],[38.03346061097992,49.90054074675325],[38.0226,49.9103],[38.021,49.9256],[38.0444,49.9329],[37.965,49.9787],[37.9265,50.0338],[37.7969,50.0841],[37.7549,50.0784],[37.71,50.1337],[37.6409,50.1758],[37.6145,50.2201],[37.6356,50.3113],[37.5771,50.3066],[37.5557,50.3297],[37.4846,50.3566],[37.4615,50.4187],[37.4846,50.445],[37.4911,50.4575],[37.4768,50.4595],[37.4119,50.4327],[37.3332,50.4371],[37.2928,50.4013],[37.1531,50.3562],[36.8718,50.3353],[36.6883,50.267],[36.6794,50.2371],[36.6486,50.2176],[36.5604,50.2505],[36.5805,50.2623],[36.5742,50.2745],[36.5929,50.2752],[36.585,50.2859],[36.5237,50.2864],[36.4879,50.3113],[36.44,50.3112],[36.4334,50.3307],[36.3641,50.2874],[36.2958,50.2917],[36.2734,50.3233],[36.2837,50.3356],[36.1479,50.4352],[36.0679,50.4508],[35.9356,50.4308],[35.8898,50.4386],[35.8724,50.4225],[35.8318,50.4339],[35.7925,50.4158],[35.8065,50.4112],[35.8021,50.3974],[35.7382,50.3544],[35.66750889240194,50.35138053057998],[35.6011,50.3669],[35.612,50.3745],[35.5841,50.3922],[35.5868,50.4488],[35.477,50.4882],[35.4363,50.5302],[35.4278,50.5621],[35.3908,50.5801],[35.4255,50.603],[35.3945,50.6511],[35.4624,50.666],[35.4854,50.6553],[35.4964,50.6788],[35.4604,50.6889],[35.4736,50.7254],[35.464,50.7348],[35.489,50.7768],[35.4118,50.8023],[35.4193,50.8439],[35.3824,50.8707],[35.4023,50.8797],[35.3799,50.8957],[35.4031,50.9032],[35.4002,50.9142],[35.3262,50.9466],[35.3523,50.9731],[35.3229,51.014],[35.3743,51.0092],[35.4096,51.039],[35.3751,51.0669],[35.3118,51.0785],[35.2098,51.0464],[35.1481,51.0824],[35.1769,51.0986],[35.1633,51.1096],[35.1749,51.1216],[35.1415,51.1338],[35.1236,51.1645],[35.1501,51.2237],[35.0758,51.2321],[35.0398,51.2046],[35.038,51.2177],[34.9799,51.2353],[34.8981,51.1934],[34.8623,51.1992],[34.8336,51.1832],[34.8356,51.1693],[34.7848,51.1847],[34.7169,51.1717],[34.6686,51.1969],[34.6617,51.2474],[34.6017,51.2535],[34.58,51.2336],[34.5405,51.2525],[34.484,51.2447],[34.3832,51.2734],[34.3064,51.2382],[34.2311,51.2652],[34.2553,51.2818],[34.2377,51.2919],[34.2823,51.3106],[34.2816,51.3353],[34.3149,51.329],[34.3389,51.3567],[34.3059,51.3791],[34.2855,51.3747],[34.2925,51.3881],[34.228,51.3997],[34.2208,51.417],[34.2553,51.4398],[34.2447,51.4564],[34.2912,51.4803],[34.2898,51.5095],[34.3084,51.5192],[34.26,51.5335],[34.2374,51.5847],[34.2166,51.5749],[34.2109,51.6],[34.1822,51.5968],[34.1674,51.6456],[34.1303,51.643],[34.1056,51.6668],[34.0814,51.6664],[34.1278,51.6892],[34.2908,51.705],[34.3094,51.7202],[34.4223,51.7223],[34.4404,51.7433],[34.4093,51.7821],[34.4154,51.8253],[34.3034,51.8875],[34.246,51.8815],[34.2615,51.9094],[34.2197,51.9205],[34.1899,51.9682],[34.1429,51.9682],[34.1296,51.9847],[34.1398,52.0002],[34.0965,52.0049],[34.1011,52.0414],[34.0625,52.0735],[34.0951,52.0855],[34.087,52.109],[34.116,52.1411],[34.0534,52.1712],[34.065,52.183],[34.0529,52.2016],[34.0165,52.202],[34.0005,52.2272],[33.9369,52.2498],[33.9446,52.2829],[33.9219,52.3046],[33.8392,52.3201],[33.8547,52.3339],[33.8389,52.3585],[33.7906,52.3666],[33.6835,52.3579],[33.6048,52.3337],[33.5819,52.3108],[33.5441,52.3237],[33.5607,52.3019],[33.4823,52.3138],[33.5193,52.3545],[33.4551,52.3653],[33.4389,52.3531],[33.4469,52.3422],[33.4289,52.3457],[33.4109,52.3496],[33.4167,52.3603],[33.3807,52.3719],[33.3066,52.3502],[33.1964,52.3738],[33.1703,52.3732],[33.1696,52.3414],[33.1353,52.3456],[33.0672,52.3027],[33.0738,52.3244],[33.0602,52.3299],[33.045,52.3074],[32.9947,52.288],[32.9961,52.2719],[32.9619,52.2736],[32.9043,52.2459],[32.8879,52.2454],[32.8844,52.2737],[32.8334,52.2786],[32.8178,52.2591],[32.7566,52.267],[32.7007,52.2483],[32.6682,52.2767],[32.6071,52.3052],[32.5771,52.3018],[32.5511,52.326],[32.5013,52.3274],[32.4903,52.3139],[32.378,52.3375],[32.3525,52.3162],[32.3706,52.2754],[32.3952,52.2788],[32.3832,52.2696],[32.4015,52.2469],[32.3465,52.2445],[32.3247,52.2239],[32.3471,52.1828],[32.3242,52.1516],[32.3682,52.1468],[32.3203,52.1366],[32.2909,52.1031],[32.2001,52.0664],[32.1475,52.0692],[32.134,52.0436],[32.0958,52.0336],[31.9628,52.0534],[31.916,52.0422],[31.9606,52.0746],[31.8676,52.1106],[31.8109,52.0986],[31.782,52.112],[31.7232,52.096],[31.6611,52.1164],[31.4882,52.1158],[31.4298,52.1434],[31.3245,52.1052],[31.2985,52.0524],[31.254,52.0427],[31.2095,52.0722],[31.1588,52.0795],[31.1391,52.1033],[30.9913,52.0779],[30.9494,52.0897],[30.9522,52.0753],[30.9323,52.0724],[30.9486,52.0531],[30.9243,52.0599],[30.9361,52.032],[30.9101,52.0104],[30.9307,51.9957],[30.8991,52.0041],[30.9104,51.9882],[30.8849,51.9843],[30.8893,51.9699],[30.8069,51.9486],[30.8247,51.9216],[30.8025,51.899],[30.7462,51.9015],[30.6915,51.8353],[30.6527,51.8257],[30.6702,51.7969],[30.6577,51.7752],[30.6137,51.7688],[30.6504,51.7594],[30.6238,51.7144],[30.5661,51.7084],[30.5676,51.6636],[30.5173,51.6703],[30.5343,51.6577],[30.5097,51.6265],[30.5572,51.6051],[30.5102,51.597],[30.5546,51.5789],[30.5283,51.5697],[30.5478,51.542],[30.5813,51.5493],[30.5671,51.513],[30.5895,51.4797],[30.6228,51.4659],[30.5814,51.4519],[30.5849,51.4302],[30.6187,51.4275],[30.6542,51.3793],[30.6363,51.3627],[30.6499,51.3382],[30.5916,51.3132],[30.6238,51.3049],[30.6183,51.288],[30.5399,51.2626],[30.542088625592413,51.25843627326321],[30.5061,51.2806],[30.4572,51.2751],[30.4625,51.3065],[30.3988,51.312],[30.3338,51.3533],[30.3235,51.3617],[30.3593,51.3795],[30.3444,51.4243],[30.2882,51.4631],[30.1787,51.5132],[30.1623,51.489],[30.1259,51.507],[30.1183,51.4877],[30.0153,51.5046],[30.0105,51.4897],[29.9607,51.472],[29.9265,51.4899],[29.8942,51.4846],[29.8748,51.4436],[29.8078,51.4597],[29.7907,51.4583],[29.7933,51.4424],[29.7399,51.4594],[29.7263,51.491],[29.745,51.4943],[29.7387,51.5247],[29.6318,51.5056],[29.6075,51.492],[29.6085,51.4709],[29.5812,51.4608],[29.5371,51.4812],[29.5005,51.3955],[29.4241,51.4139],[29.3754,51.401],[29.359582860156653,51.378784915950355],[29.3205,51.3775],[29.3043,51.4545],[29.2693,51.4597],[29.2452,51.5002],[29.2602,51.5321],[29.2523,51.5669],[29.2137,51.5677],[29.2044,51.5983],[29.178,51.6085],[29.1855,51.6212],[29.1575,51.6289],[29.1764,51.6487],[29.1672,51.6533],[29.1169,51.6567],[28.9979,51.5739],[28.9745,51.5731],[28.9663,51.5908],[28.906,51.5888],[28.8194,51.5588],[28.7617,51.4869],[28.7804,51.4507],[28.7532,51.4152],[28.7336,51.4349],[28.7358,51.4657],[28.683,51.444],[28.6395,51.554],[28.6519,51.5595],[28.6304,51.5616],[28.6581,51.5676],[28.4681,51.5928],[28.3536,51.5393],[28.3434,51.5763],[28.2543,51.6266],[28.2696,51.6712],[28.2602,51.6817],[28.1712,51.6447],[28.1483,51.6047],[28.1311,51.6082],[28.1027,51.5788],[27.9405,51.5575],[27.9762,51.5947],[27.9204,51.5783],[27.9131,51.6167],[27.8501,51.63],[27.8186,51.617],[27.8403,51.609],[27.8249,51.5774],[27.8476,51.5427],[27.8005,51.5335],[27.7596,51.4728],[27.672194964120035,51.51256249818788],[27.6771,51.5391],[27.7207,51.5613],[27.7228,51.6035],[27.6447,51.6158],[27.618,51.6056],[27.5497,51.6371],[27.5401,51.6216],[27.508,51.6289],[27.5121,51.6064],[27.5266,51.6073],[27.5032,51.5867],[27.4813,51.594],[27.4828,51.6149],[27.4688,51.6066],[27.4545,51.6202],[27.4159,51.6056],[27.3592,51.6158],[27.2409,51.6021],[27.2728,51.6544],[27.2078,51.6644],[27.2008,51.7733],[26.9964,51.7699],[26.949,51.7352],[26.8469,51.7661],[26.7935,51.7565],[26.7521,51.7738],[26.7541,51.8011],[26.6922,51.8233],[26.5928,51.8297],[26.5453,51.797],[26.4691,51.7996],[26.469,51.8131],[26.4288,51.8327],[26.3962,51.8316],[26.3942,51.8774],[26.3718,51.8629],[26.1552,51.8662],[26.1557,51.8791],[26.1405,51.8749],[26.0936,51.9123],[26.048,51.9136],[26.0432,51.9259],[25.9976,51.9333],[25.9161,51.9147],[25.8281,51.9244],[25.8261,51.9419],[25.7796,51.95],[25.7657,51.9495],[25.7812,51.9223],[25.5917,51.9244],[25.6311,51.9016],[25.5288,51.9397],[25.5112,51.9214],[25.4092,51.921],[25.2616,51.9671],[25.2261,51.9601],[25.1922,51.9698],[25.1001,51.9532],[24.9642,51.8973],[24.9309,51.8972],[24.9194,51.9115],[24.8434,51.896],[24.815,51.913],[24.7551,51.8826],[24.6107,51.9019],[24.3732,51.8786],[24.3398,51.8631],[24.3417,51.848],[24.2961,51.8053],[24.3175,51.7494],[24.2699,51.7169],[24.1189,51.6666],[24.0753,51.62],[23.9954,51.5804],[23.9427,51.5966],[23.8807,51.5921],[23.8803,51.6084],[23.9129,51.6315],[23.7935,51.639],[23.7799,51.6671],[23.6799,51.6528],[23.6051,51.6223],[23.6632,51.5822],[23.6372,51.5518],[23.676,51.5054],[23.6176,51.5095],[23.6198,51.4971],[23.6695,51.4826],[23.6743,51.4704],[23.6476,51.4588],[23.6497,51.4462],[23.6844,51.4425],[23.6778,51.431],[23.7022,51.4191],[23.702,51.4025],[23.6774,51.3934],[23.6851,51.3687],[23.6651,51.3672],[23.6383,51.332],[23.6469,51.2921],[23.6979,51.292],[23.7267,51.2625],[23.7404,51.2138],[23.8705,51.1509],[23.849,51.1214],[23.8585,51.0993],[23.8777,51.0766],[23.9102,51.0743],[23.9138,51.0428],[23.931,51.0381],[23.9153,51.0288],[23.9352,51.0145],[23.9154,51.0077],[23.958,50.9898],[23.9714,50.9512],[24.0526,50.8932],[24.1468,50.8687],[24.1045,50.8381],[23.9906,50.8374],[23.9584,50.7947],[23.9802,50.7684],[24.0243,50.7659],[24.0184,50.7236],[24.0721,50.7206],[24.0643,50.6786],[24.0864,50.6705],[24.0864,50.6365],[24.10820158515104,50.63960527028857],[24.0973,50.6358],[24.0696,50.5037],[23.996,50.412],[23.8031,50.4057],[23.7202,50.385],[23.6978,50.371],[23.6865,50.3313],[23.6392,50.3207],[23.581,50.2655],[23.4705,50.2176],[23.2797,50.1009],[23.2795,50.0866],[23.2159,50.0479],[23.213,50.0303],[22.9962,49.8424],[22.9702,49.8377],[22.9613,49.805],[22.8477,49.7103],[22.8054,49.6938],[22.7833,49.6565],[22.6411,49.5302],[22.6519,49.5089],[22.6988,49.4916],[22.7466,49.361],[22.7393,49.2475],[22.7139,49.2264],[22.7464,49.2161],[22.7075,49.1747],[22.7183,49.1649],[22.7557,49.1826],[22.7397,49.1585],[22.7891,49.158],[22.8296,49.1122],[22.8922,49.0948],[22.8653,49.0666],[22.8669,49.0399],[22.8941,49.0167],[22.869236660281288,49.00388873716784],[22.8466,49.0028],[22.8328,49.0264],[22.7658,49.0538],[22.6818,49.039],[22.6535,49.0499],[22.6243,49.0806],[22.5788,49.0965],[22.5525,49.0797],[22.5431,49.0065],[22.4769,48.9925],[22.4231,48.929],[22.4202,48.8846],[22.3799,48.8603],[22.3871,48.7991],[22.3458,48.7667],[22.3611,48.732],[22.339,48.6842],[22.1887,48.61],[22.1604,48.5678],[22.1372,48.4335],[22.144,48.4038],[22.2103,48.4259],[22.2653,48.4097],[22.2408,48.386],[22.267,48.3611],[22.3179,48.3533],[22.3121,48.3256],[22.3809,48.2355],[22.4014,48.2499],[22.5015,48.2487],[22.5316,48.2093],[22.5717,48.1966],[22.5625,48.1796],[22.5975,48.1438],[22.5907,48.1084],[22.6727,48.0917],[22.7374,48.1202],[22.77,48.1089],[22.7706,48.1208],[22.8042,48.1217],[22.8067,48.1058],[22.8246,48.1175],[22.8393,48.0803],[22.8815,48.054],[22.8411,47.9815],[22.8929,47.9675],[22.8935,47.9548],[22.9492,47.9686],[22.92,48.0066],[22.9267,48.0185],[23.013,47.9889],[23.0915,48.0077],[23.1047,48.0647],[23.1227,48.0774],[23.114,48.0864],[23.1752,48.1198],[23.1901,48.0973],[23.2679,48.0989],[23.291,48.0727],[23.2844,48.05],[23.4509,47.9765],[23.5012,47.9686],[23.5292,48.0202],[23.5643,48.0034],[23.6136,48.0082],[23.6669,47.9834],[23.7726,47.9951],[23.8272,47.9755],[23.8639,47.9322],[24.0093,47.967],[24.0921,47.939],[24.112,47.915],[24.1953,47.9168],[24.2274,47.8965],[24.3245,47.9261],[24.3479,47.915],[24.3803,47.9265],[24.3923,47.9541],[24.4352,47.9709],[24.502,47.9525],[24.5534,47.9593],[24.5782,48.0196],[24.5632,47.9683],[24.6016,47.945],[24.6251,47.9514],[24.6351,47.9242],[24.673,47.8965],[24.6709,47.8652],[24.7062,47.8398],[24.8277,47.8207],[24.8361,47.7805],[24.878,47.7529],[24.883,47.7243],[24.9215,47.7262],[25.04,47.7273],[25.0524,47.7481],[25.1156,47.755],[25.1342,47.7826],[25.1669,47.7917],[25.1802,47.8258],[25.2216,47.859],[25.2292,47.8923],[25.2699,47.8925],[25.3113,47.9143],[25.6251,47.9494],[25.7762,47.9396],[25.8466,47.9686],[25.8923,47.9614],[25.9148,47.9773],[26.1036,47.9787],[26.1851,47.9944],[26.2123,48.0508],[26.267,48.0764],[26.2984,48.1341],[26.3337,48.1573],[26.333,48.1845],[26.4381,48.1942],[26.4701,48.22],[26.5244,48.2088],[26.5721,48.2198],[26.5858,48.2458],[26.6198,48.2393],[26.6156,48.2509],[26.6309,48.2544],[26.6163,48.2744],[26.6958,48.3271],[26.6823,48.3555],[26.6941,48.36],[26.7366,48.3129],[26.7579,48.3238],[26.767,48.3022],[26.8171,48.2949],[26.8309,48.3134],[26.8241,48.3443],[26.765,48.3537],[26.7092,48.4054],[26.7245,48.4118],[26.7539,48.3988],[26.775,48.4183],[26.8728,48.4198],[26.9012,48.3968],[26.8946,48.3836],[26.9318,48.363],[26.9951,48.3594],[27.0046,48.3802],[27.046,48.3741],[27.0402,48.4108],[27.0141,48.425],[27.0623,48.4212],[27.085,48.4346],[27.0873,48.4129],[27.1236,48.3791],[27.1924,48.3949],[27.2357,48.3729],[27.2857,48.3714],[27.3197,48.4435],[27.3733,48.4418],[27.3837,48.4106],[27.4473,48.4094],[27.4662,48.4485],[27.5346,48.4702],[27.6,48.4902],[27.5906,48.4614],[27.644,48.4412],[27.746,48.4576],[27.7853,48.4465],[27.8733,48.4042],[27.8836,48.3714],[27.9531,48.3287],[28.0734,48.3176],[28.0937,48.2924],[28.0888,48.2343],[28.1281,48.2404],[28.1462,48.2627],[28.1774,48.2571],[28.1853,48.2156],[28.2082,48.2044],[28.3533,48.2459],[28.369,48.2248],[28.3614,48.1923],[28.3081,48.1616],[28.3054,48.1406],[28.3468,48.1351],[28.3847,48.1756],[28.4282,48.1724],[28.4392,48.1427],[28.4219,48.1219],[28.454,48.0788],[28.4942,48.0652],[28.4919,48.1188],[28.5206,48.138],[28.5028,48.1511],[28.5772,48.1821],[28.5794,48.1665],[28.5919,48.1733],[28.6475,48.1431],[28.6823,48.1468],[28.688,48.1244],[28.8336,48.1285],[28.8575,48.1024],[28.8484,48.0801],[28.8666,48.07],[28.8331,48.0727],[28.8519,48.0607],[28.8395,48.0346],[28.9018,48.0125],[28.8776,48.0007],[28.9259,47.9599],[28.9613,47.9792],[29.0327,47.9426],[29.0742,47.944],[29.0865,47.9466],[29.0796,47.9716],[29.0979,47.96],[29.0922,47.9828],[29.175,47.9937],[29.2005,47.8842],[29.2161,47.8959],[29.2157,47.8858],[29.2813,47.888],[29.2239,47.8548],[29.1989,47.8202],[29.2192,47.7983],[29.247,47.811],[29.2764,47.8019],[29.2483,47.7512],[29.2044,47.7191],[29.231,47.6838],[29.2091,47.6422],[29.234,47.6425],[29.2093,47.6286],[29.2175,47.6121],[29.1844,47.5719],[29.1171,47.5543],[29.1516,47.5066],[29.1898,47.5138],[29.1877,47.4752],[29.1573,47.4592],[29.1907,47.4664],[29.1898,47.4254],[29.2422,47.4619],[29.2439,47.4152],[29.3174,47.4492],[29.3372,47.3702],[29.3908,47.3798],[29.3979,47.3536],[29.3834,47.3448],[29.3983,47.3003],[29.4234,47.3049],[29.4269,47.2921],[29.4857,47.3057],[29.4873,47.3559],[29.574,47.3705],[29.5988,47.2574],[29.5518,47.2514],[29.5801,47.1355],[29.4954,47.1318],[29.497,47.1216],[29.5302,47.0754],[29.5499,47.0759],[29.5474,47.0938],[29.612,47.1003],[29.6288,47.0446],[29.6023,47.0416],[29.5958,46.9636],[29.556,46.9578],[29.5714,46.9401],[29.64,46.9553],[29.648,46.9197],[29.7183,46.9321],[29.7499,46.861],[29.884,46.886],[29.8834,46.8514],[29.905,46.8201],[29.9494,46.8418],[29.968,46.832],[29.9783,46.8163],[29.9348,46.8059],[29.9742,46.7539],[29.9705,46.6857],[29.9456,46.6483],[29.9678,46.5975],[29.9632,46.5845],[29.9359,46.5889],[29.9452,46.5551],[29.8777,46.5427],[29.9434,46.5019],[29.936,46.494],[29.9619,46.5098],[29.9602,46.4904],[29.9864,46.5101],[29.9872,46.4941],[30.0007,46.4957],[29.9952,46.473],[30.023,46.4682],[29.9936,46.4623],[30.0258,46.4531],[30.0228,46.4418],[30.0624,46.443],[30.0555,46.4289],[30.0779,46.4238],[30.097,46.4399],[30.1337,46.4106],[30.1537,46.4302],[30.1635,46.4136],[30.0967,46.3753],[30.071,46.3968],[30.0218,46.3829],[29.9387,46.4009],[29.8868,46.3715],[29.8911,46.3524],[29.8052,46.3856],[29.823,46.3956],[29.7867,46.4198],[29.7762,46.4549],[29.7412,46.4728],[29.7266,46.4667],[29.7345,46.4349],[29.6603,46.4361],[29.6786,46.3614],[29.6031,46.3537],[29.5802,46.3609],[29.5659,46.4164],[29.4946,46.4279],[29.4846,46.4474],[29.5023,46.4614],[29.448,46.4985],[29.3867,46.4466],[29.3961,46.4253],[29.3512,46.5042],[29.3313,46.496],[29.3363,46.474],[29.3083,46.4652],[29.3241,46.4148],[29.2652,46.4065],[29.2679,46.3937],[29.2405,46.3761],[29.2068,46.3863],[29.2458,46.4168],[29.2196,46.4635],[29.2551,46.4852],[29.2409,46.4994],[29.2355,46.5583],[29.1617,46.5444],[29.1635,46.5155],[29.0629,46.5123],[29.0335,46.4906],[28.9815,46.4888],[28.9853,46.4775],[29.0233,46.4801],[29.0255,46.4623],[28.9307,46.4577],[29.0036,46.3164],[28.9851,46.3182],[28.9518,46.2595],[29.067,46.1955],[28.9503,46.0937],[29.0054,46.0494],[28.9787,46.0035],[28.7566,45.9573],[28.7858,45.8323],[28.6971,45.818],[28.7092,45.7801],[28.5856,45.7725],[28.5891,45.7295],[28.5195,45.7368],[28.4803,45.6778],[28.4858,45.6604],[28.5159,45.665],[28.5441,45.58],[28.4911,45.5711],[28.5151,45.4999],[28.4206,45.485],[28.4207,45.5126],[28.3045,45.547],[28.2149,45.4707],[28.2742,45.4503],[28.2826,45.3956],[28.3496,45.3199],[28.5588,45.2493],[28.7146,45.2237],[28.7919,45.2429],[28.7514,45.281],[28.8021,45.3007],[28.7806,45.323],[28.798,45.3352],[28.9415,45.2798],[28.9669,45.3314],[29.1692,45.3948],[29.2423,45.4341],[29.2887,45.4275],[29.3253,45.4484],[29.4283,45.4433],[29.5943,45.3871],[29.6687,45.3096],[29.6782,45.2685],[29.6594,45.2483],[29.673,45.2171],[29.6934,45.2346],[29.6825,45.2134],[29.6875,45.2166],[29.6966,45.2097],[29.6958,45.2285],[29.6978,45.2105],[29.7063,45.2229],[29.719,45.21],[29.7438,45.2307],[29.7171,45.2828],[29.7324,45.289],[29.7376,45.2663],[29.7634,45.3261],[29.7591,45.3926],[29.7468,45.3978],[29.7659,45.4625],[29.7425,45.4636],[29.75,45.4881],[29.7215,45.4481],[29.7178,45.4484],[29.7175,45.4574],[29.7245,45.4705],[29.677,45.4548],[29.6634,45.4786],[29.6454,45.4516],[29.6047,45.4798],[29.6101,45.5137],[29.6293,45.515],[29.623,45.5102],[29.6107,45.5106],[29.6176,45.5031],[29.6175,45.4752],[29.6351,45.5153],[29.7122,45.5754],[30.2339,45.8712],[30.4812,46.0791],[30.6826,46.3262],[30.7511,46.3763],[30.7716,46.4479],[30.7581,46.4914],[30.7292,46.5087],[30.7522,46.5454],[30.8376,46.5519],[31.189328026569523,46.63923382972644],[31.1761,46.6272],[31.3513,46.6012],[31.3705,46.6228],[31.4817,46.6251],[31.5504,46.5999],[31.5868,46.6379],[31.6459,46.6491],[31.7958,46.6087],[31.8975,46.6451],[31.9079,46.713],[31.9241,46.7295],[31.8876,46.7441],[31.8724,46.7923],[31.9122,46.8403],[31.9645,46.8662],[31.9854,46.85],[31.9506,46.8358],[31.9512,46.8069],[31.9225,46.7896],[31.9367,46.7775],[31.9257,46.7682],[31.9446,46.7751],[31.9346,46.7472],[31.9733,46.7136],[31.9822,46.6565],[32.0517,46.6148],[32.104,46.6105],[32.1374,46.5572],[32.2438,46.5913],[32.2902,46.5772],[32.3055,46.5626],[32.2856,46.5291],[32.3029,46.5326],[32.2889,46.5255],[32.2997,46.5145],[32.2861,46.5099],[32.3116,46.5061],[32.2963,46.5038],[32.2816,46.5083],[32.2759,46.505],[32.314,46.4944],[32.2864,46.4896],[32.3082,46.4894],[32.2888,46.4874],[32.321,46.4781],[32.3152,46.4693],[32.327,46.4689],[32.3338,46.4755],[32.3382,46.4735],[32.3386,46.4838],[32.4036,46.4959],[32.4363,46.4858],[32.3459,46.4628],[32.2042,46.4785],[32.1228,46.4988],[31.9971,46.4888],[31.9025,46.5175],[31.8577,46.5167],[31.7533,46.547],[31.5768,46.5371],[31.5066,46.581],[31.5245,46.5594],[31.5495,46.5382],[31.7076,46.4357],[31.6935,46.4449],[31.7132,46.483],[31.7448,46.4957],[31.806,46.4787],[31.9538,46.4384],[31.9171,46.4552],[31.9257,46.4559],[31.9595,46.4455],[31.9431,46.4513],[31.9542,46.4505],[31.9695,46.4431],[32.0148,46.4515],[32.0656,46.3865],[32.0407,46.3779],[32.0248,46.3848],[32.0051,46.357],[31.9578,46.341],[31.8978,46.3321],[31.8347,46.334],[31.7835,46.3222],[31.7566,46.2965],[31.7739,46.2943],[31.7776,46.266],[31.7941,46.2745],[31.7916,46.2803],[31.815,46.2768],[31.8152,46.2638],[31.8281,46.2742],[31.8596,46.2722],[31.8741,46.2651],[31.8928,46.288],[31.8961,46.2853],[31.8774,46.3055],[31.8956,46.3149],[31.8933,46.3004],[31.9411,46.2905],[31.9738,46.2558],[32.002,46.266],[31.9957,46.2523],[32.0289,46.2473],[32.0529,46.2583],[32.1267,46.2041],[32.188,46.2017],[32.187,46.198],[32.1788,46.1948],[32.1657,46.197],[32.1934,46.1762],[32.207,46.1904],[32.263,46.1907],[32.2377,46.1844],[32.2465,46.1694],[32.2288,46.1696],[32.2275,46.1317],[32.5425,46.0655],[32.546,46.0806],[32.6016,46.0986],[32.7676,46.1225],[32.829,46.1101],[32.8733,46.1238],[32.9097,46.1056],[33.0272,46.1102],[33.0147,46.1219],[33.0307,46.138],[33.0105,46.152],[33.0194,46.1596],[33.1349,46.1244],[33.1855,46.1549],[33.187,46.1944],[33.2023,46.1901],[33.2254,46.2175],[33.206,46.1739],[33.2264,46.1532],[33.2047,46.1351],[33.2027,46.1068],[33.215,46.1059],[33.2172,46.1316],[33.2835,46.1329],[33.3115,46.1046],[33.2802,46.0966],[33.2845,46.0773],[33.309,46.0757],[33.3305,46.116],[33.3602,46.0896],[33.3758,46.0957],[33.3654,46.0761],[33.4221,46.0302],[33.4158,46.0383],[33.4604,46.051],[33.4992,46.0274],[33.5169,46.0324],[33.4915,46.0556],[33.4982,46.076],[33.5743,46.0753],[33.5149,46.0992],[33.5105,46.1231],[33.5378,46.1183],[33.5836,46.1587],[33.6152,46.1346],[33.6176,46.1205],[33.6423,46.084],[33.613,46.0498],[33.6319,45.9828],[33.6179,45.9472],[33.6859,45.9611],[33.7477,45.951],[33.7614,45.9272],[33.6805,45.9071],[33.6831,45.8422],[33.6574,45.8728],[33.6137,45.8903],[33.5665,45.8686],[33.5441,45.8357],[33.4863,45.8551],[33.4471,45.8237],[33.4146,45.8249],[33.4279,45.8345],[33.4649,45.8464],[33.4543,45.8452],[33.4214,45.8331],[33.3507,45.784],[33.2434,45.7513],[33.1813,45.7726],[33.1679,45.7902],[33.1758,45.8062],[33.1673,45.793],[33.1541,45.7385],[33.1397,45.7197],[32.9085,45.6396],[32.8204,45.5867],[32.8446,45.5767],[32.8284,45.5487],[32.7894,45.5626],[32.6949,45.5104],[32.6919,45.5233],[32.5836,45.4796],[32.4796,45.3923],[32.5146,45.3714],[32.4936,45.3468],[32.65,45.3147],[32.7563,45.3654],[32.9085,45.3615],[32.9879,45.3254],[33.1477,45.204],[33.2592,45.1475],[33.391,45.1971],[33.5125,45.1335],[33.5682,45.0739],[33.602,44.9993],[33.6098,44.8847],[33.5983,44.8508],[33.5699,44.8302],[33.57863656743014,44.81727466736363],[33.5773,44.8177],[33.5525,44.8385],[33.534,44.7911],[33.544,44.6634],[33.5103,44.6314],[33.6005,44.6101],[33.5325,44.6166],[33.5276,44.5976],[33.5261,44.6182],[33.5029,44.6167],[33.4989,44.6045],[33.4728,44.6107],[33.4706,44.5924],[33.4642,44.6007],[33.4664,44.6114],[33.4505,44.6087],[33.447,44.5943],[33.4222,44.5962],[33.4336,44.5705],[33.4149,44.5929],[33.4112,44.5629],[33.4011,44.5908],[33.378,44.5826],[33.4861,44.4977],[33.5578,44.4885],[33.5982,44.5033],[33.6359,44.4691],[33.6483,44.428],[33.7076,44.4209],[33.7366,44.3877],[33.76899055933911,44.394904554480235],[33.7625,44.3898],[33.8594,44.4076],[33.9668,44.3927],[34.128,44.4286],[34.1678,44.4943],[34.2514,44.5066],[34.3089,44.5537],[34.3486,44.5493],[34.3498,44.5824],[34.3728,44.5925],[34.4163,44.6731],[34.4571,44.7103],[34.7275,44.8118],[34.9105,44.8166],[34.9685,44.8423],[35.0301,44.8308],[35.048,44.802],[35.083,44.7943],[35.1296,44.8244],[35.1577,44.8955],[35.2405,44.9205],[35.2599,44.9652],[35.3226,44.97],[35.3847,44.9492],[35.3591,44.9883],[35.4249,45.0136],[35.3863,45.0297],[35.3895,45.0559],[35.5011,45.1179],[35.5846,45.1301],[35.695,45.1058],[35.7799,45.0649],[35.8405,44.9979],[35.9111,45.0188],[35.956,45.0124],[36.0279,45.0497],[36.2219,45.0279],[36.2665,45.0533],[36.4065,45.0706],[36.4533,45.1014],[36.4053,45.1729],[36.4026,45.2156],[36.436,45.2654],[36.4275,45.2761],[36.4337,45.2646],[36.4138,45.2431],[36.425,45.2556],[36.407,45.2602],[36.4286,45.2592],[36.4177,45.2862],[36.4947,45.3181],[36.4611,45.3358],[36.4832,45.3614],[36.5979,45.3462],[36.647,45.3817],[36.6088,45.4081],[36.6143,45.4214],[36.5969,45.4382],[36.5565,45.4239],[36.4752,45.4561],[36.4139,45.4458],[36.3449,45.4831],[36.328,45.4707],[36.2853,45.481],[36.125,45.4618],[36.0723,45.4414],[36.0734,45.4073],[36.0487,45.3845],[35.9746,45.3701],[35.8707,45.4176],[35.8453,45.4463],[35.8724,45.4653],[35.8496,45.4734],[35.8193,45.4606],[35.822,45.4348],[35.7497,45.3932],[35.757,45.369],[35.7188,45.334],[35.5252,45.2827],[35.4022,45.3365],[35.3056,45.4093],[34.9644,45.7588],[35.0052,45.6805],[35.2245,45.4854],[35.3061,45.3879],[35.3203,45.3927],[35.4189,45.3012],[35.4113,45.3161],[35.4758,45.2942],[35.4631,45.2807],[35.4816,45.2677],[35.4631,45.2712],[35.4708,45.2584],[35.4544,45.2594],[35.4557,45.2689],[35.375,45.2565],[35.3561,45.2305],[35.3336,45.2518],[35.3657,45.2726],[35.3548,45.2829],[35.2663,45.3135],[35.242,45.3026],[35.2517,45.319],[35.2046,45.3406],[35.1203,45.3403],[35.0667,45.3785],[35.027,45.4391],[35.0435,45.3978],[35.0601,45.3799],[35.0445,45.3994],[35.0375,45.4218],[35.0449,45.3995],[35.0427,45.4129],[35.0642,45.3778],[35.0819,45.3614],[35.08,45.3579],[34.9806,45.3593],[34.9564,45.3754],[34.9696,45.3936],[35.0043,45.3969],[35.0195,45.4421],[35.1113,45.4863],[35.0975,45.4935],[35.0889,45.5335],[35.0764,45.5333],[35.0711,45.5411],[35.0758,45.5408],[35.0784,45.557],[35.0531,45.5684],[35.0571,45.5806],[35.0463,45.58],[35.0383,45.5861],[35.0373,45.5825],[35.0265,45.583],[35.0213,45.5857],[35.0379,45.6194],[35.0446,45.6119],[35.0545,45.6075],[35.0724,45.5819],[35.0758,45.5661],[35.0996,45.5259],[35.1104,45.4927],[35.1026,45.5221],[35.0869,45.5581],[35.0774,45.5656],[35.0735,45.5822],[35.0554,45.6086],[35.042,45.6154],[35.0274,45.6388],[34.9563,45.6545],[34.9699,45.6587],[34.962,45.6634],[34.9598,45.6722],[34.965,45.6864],[34.8661,45.6716],[34.876,45.6931],[34.8948,45.6914],[34.8437,45.7258],[34.875,45.7504],[34.7169,45.7082],[34.6704,45.7211],[34.708,45.7479],[34.7375,45.7452],[34.7819,45.7925],[34.7646,45.8074],[34.7533,45.7986],[34.7417,45.8152],[34.7633,45.8088],[34.753,45.8234],[34.7432,45.8264],[34.7425,45.8239],[34.7494,45.8239],[34.6588,45.8009],[34.6744,45.8566],[34.7372,45.8796],[34.7597,45.8654],[34.7711,45.8765],[34.7607,45.9018],[34.6621,45.8719],[34.5482,45.7957],[34.4738,45.7841],[34.4613,45.8049],[34.5101,45.8063],[34.5522,45.8417],[34.5535,45.8648],[34.6277,45.8886],[34.6346,45.9179],[34.618,45.889],[34.6135,45.9199],[34.6383,45.9202],[34.6485,45.9447],[34.55357845201032,45.98847159618431],[34.5881,46.009],[34.6444,46.0924],[34.6021,46.1707],[34.6907,46.1841],[34.8133,46.1617],[34.8337,46.2043],[34.8959,46.2394],[35.0558,46.2689],[35.1038,46.302],[35.1335,46.3428],[35.2673,46.4274],[35.2513,46.3956],[35.2629,46.3486],[35.3007,46.3526],[35.3174,46.3317],[35.3269,46.3524],[35.356,46.3589],[35.2891,46.3036],[35.2686,46.2503]]],[[[31.9144,46.5215],[31.9114,46.5234],[31.8993,46.5235],[31.8975,46.5203],[31.9144,46.5215]]],[[[31.9088,46.5249],[31.9033,46.5265],[31.8977,46.5284],[31.9003,46.525],[31.9088,46.5249]]],[[[31.898,46.5241],[31.8913,46.527],[31.8881,46.5295],[31.8804,46.531],[31.898,46.5241]]],[[[31.559,46.5715],[31.5622,46.5697],[31.5608,46.5736],[31.5595,46.5741],[31.559,46.5715]]],[[[31.4129,46.5945],[31.4121,46.6006],[31.4078,46.6012],[31.4114,46.5947],[31.4129,46.5945]]],[[[31.5649,46.6109],[31.5676,46.6116],[31.5674,46.6128],[31.5632,46.612],[31.5649,46.6109]]],[[[30.3463,50.4963],[30.318,50.4943],[30.3364,50.4832],[30.3471,50.4916],[30.3463,50.4963]]],[[[30.7223,50.5222],[30.7323,50.5122],[30.747,50.5173],[30.7457,50.5237],[30.7223,50.5222]]],[[[33.4195,45.8274],[33.4206,45.8255],[33.4213,45.8273],[33.4206,45.828],[33.4195,45.8274]]],[[[33.4364,45.8307],[33.4375,45.831],[33.4373,45.8325],[33.4355,45.8324],[33.4364,45.8307]]],[[[33.4346,45.8333],[33.4348,45.8337],[33.434,45.834],[33.4335,45.8335],[33.4346,45.8333]]],[[[33.4362,45.8354],[33.4364,45.8344],[33.4369,45.8347],[33.4371,45.8354],[33.4362,45.8354]]],[[[33.4418,45.8363],[33.4398,45.8374],[33.4391,45.8352],[33.4403,45.835],[33.4418,45.8363]]],[[[33.461,45.8438],[33.4585,45.8438],[33.4588,45.8428],[33.4615,45.8433],[33.461,45.8438]]],[[[33.4666,45.8445],[33.4678,45.8448],[33.4682,45.8459],[33.4662,45.845],[33.4666,45.8445]]],[[[33.5083,45.8535],[33.5054,45.8568],[33.5029,45.8573],[33.5036,45.8536],[33.5083,45.8535]]],[[[33.5099,45.861],[33.5063,45.8574],[33.5128,45.8552],[33.5106,45.8577],[33.5086,45.8574],[33.5099,45.861]]],[[[33.514,45.8633],[33.5147,45.8618],[33.5154,45.8619],[33.5163,45.8641],[33.514,45.8633]]],[[[33.5183,45.865],[33.5208,45.8693],[33.5385,45.8792],[33.5186,45.8691],[33.5183,45.865]]],[[[33.6414,45.9444],[33.6415,45.9428],[33.6443,45.9444],[33.6445,45.9447],[33.6414,45.9444]]],[[[33.4345,46.0273],[33.4361,46.0284],[33.4341,46.0303],[33.4332,46.0293],[33.4345,46.0273]]],[[[33.43,46.0305],[33.4313,46.031],[33.4295,46.0342],[33.428,46.0329],[33.43,46.0305]]],[[[32.7885,46.0323],[32.7893,46.0326],[32.7896,46.0333],[32.7871,46.034],[32.7885,46.0323]]],[[[32.7356,46.0347],[32.9184,46.0114],[33.0753,46.0136],[32.9423,46.0468],[32.8905,46.0347],[32.9001,46.0404],[32.8647,46.0612],[32.786,46.0298],[32.7832,46.0348],[32.5617,46.0673],[32.5483,46.0663],[32.7356,46.0347]]],[[[32.6208,46.0615],[32.6212,46.0621],[32.6191,46.0617],[32.6195,46.0614],[32.6208,46.0615]]],[[[33.1964,46.0665],[33.2003,46.0667],[33.2043,46.0708],[33.1946,46.0682],[33.1964,46.0665]]],[[[33.2018,46.0731],[33.2043,46.0735],[33.2029,46.0764],[33.2008,46.0772],[33.2018,46.0731]]],[[[33.3228,46.0746],[33.3252,46.0752],[33.3265,46.076],[33.3191,46.0751],[33.3228,46.0746]]],[[[33.3108,46.0754],[33.3149,46.0756],[33.3123,46.0778],[33.3101,46.0766],[33.3108,46.0754]]],[[[33.1927,46.0832],[33.1944,46.0834],[33.194,46.086],[33.1916,46.0863],[33.1927,46.0832]]],[[[33.1903,46.0892],[33.1905,46.0899],[33.1889,46.0905],[33.1889,46.0895],[33.1903,46.0892]]],[[[33.9312,46.0949],[33.9275,46.1008],[33.9078,46.1005],[33.9229,46.0815],[33.9312,46.0949]]],[[[33.2163,46.107],[33.2183,46.1073],[33.2183,46.1088],[33.2161,46.1077],[33.2163,46.107]]],[[[33.0362,46.1126],[33.0388,46.1114],[33.0425,46.1125],[33.0428,46.1134],[33.0362,46.1126]]],[[[33.0323,46.1125],[33.0342,46.1126],[33.0334,46.1136],[33.0312,46.1136],[33.0323,46.1125]]],[[[32.224,46.1329],[32.2152,46.1355],[32.2051,46.139],[32.2016,46.1385],[32.224,46.1329]]],[[[32.2158,46.1368],[32.2176,46.1364],[32.218,46.1372],[32.2153,46.1376],[32.2158,46.1368]]],[[[32.1996,46.138],[32.2,46.1392],[32.1983,46.1387],[32.1986,46.1383],[32.1996,46.138]]],[[[32.2001,46.141],[32.2021,46.1409],[32.2017,46.1419],[32.1992,46.1424],[32.2001,46.141]]],[[[33.2082,46.1427],[33.21,46.1425],[33.2106,46.1442],[33.2089,46.1445],[33.2082,46.1427]]],[[[32.1971,46.1398],[32.0724,46.1699],[32.036,46.1748],[32.0308,46.1769],[32.0374,46.1717],[32.0567,46.1671],[32.1971,46.1398]]],[[[33.1951,46.174],[33.1966,46.174],[33.196,46.1764],[33.1949,46.1764],[33.1951,46.174]]],[[[32.0233,46.1775],[32.0266,46.1791],[32.026,46.1796],[32.022,46.1785],[32.0233,46.1775]]],[[[32.046,46.2169],[32.0467,46.2178],[32.0432,46.218],[32.0447,46.217],[32.046,46.2169]]],[[[32.039,46.2182],[32.0402,46.2181],[32.0397,46.2194],[32.0382,46.2191],[32.039,46.2182]]],[[[32.0293,46.2192],[32.0319,46.2186],[32.0349,46.2195],[32.0281,46.2203],[32.0293,46.2192]]],[[[32.0471,46.2552],[32.0475,46.2546],[32.0486,46.2549],[32.0488,46.2557],[32.0471,46.2552]]],[[[32.0408,46.3796],[32.0418,46.3792],[32.0434,46.3798],[32.0438,46.3808],[32.0408,46.3796]]],[[[32.0531,46.3861],[32.0552,46.3859],[32.0559,46.3865],[32.053,46.3868],[32.0531,46.3861]]],[[[32.0589,46.3871],[32.0581,46.3882],[32.0564,46.3874],[32.0565,46.3871],[32.0589,46.3871]]],[[[32.0327,46.3851],[32.0328,46.3887],[32.0356,46.3944],[32.0261,46.3862],[32.0327,46.3851]]],[[[32.0579,46.3902],[32.0584,46.3894],[32.0599,46.3902],[32.0597,46.3909],[32.0579,46.3902]]],[[[32.0412,46.3963],[32.0457,46.3995],[32.0466,46.4007],[32.0394,46.3972],[32.0412,46.3963]]],[[[32.2775,46.4738],[32.29,46.4707],[32.309,46.4804],[32.2813,46.4871],[32.2778,46.4829],[32.2865,46.481],[32.2861,46.4792],[32.2775,46.4738]]],[[[32.286,46.4805],[32.2812,46.4815],[32.2747,46.4823],[32.2749,46.4772],[32.286,46.4805]]],[[[32.2777,46.4844],[32.2789,46.4873],[32.2703,46.4872],[32.2703,46.4865],[32.2777,46.4844]]],[[[32.2681,46.491],[32.2617,46.4933],[32.2557,46.4949],[32.2685,46.4898],[32.2681,46.491]]],[[[32.272,46.4935],[32.2784,46.4925],[32.2757,46.4962],[32.2669,46.4988],[32.272,46.4935]]],[[[32.2609,46.497],[32.2647,46.4954],[32.2638,46.4976],[32.2605,46.4986],[32.2609,46.497]]],[[[32.1411,46.5104],[32.1583,46.4959],[32.192,46.4875],[32.1681,46.4962],[32.1503,46.5098],[32.1411,46.5104]]],[[[32.0897,46.4988],[32.0885,46.5004],[32.0905,46.5019],[32.0781,46.4997],[32.0897,46.4988]]],[[[32.0947,46.5004],[32.1112,46.5083],[32.1163,46.5145],[32.0889,46.5047],[32.0947,46.5004]]],[[[32.2906,46.5141],[32.2892,46.5178],[32.2852,46.5201],[32.2847,46.5164],[32.2906,46.5141]]],[[[34.1769,45.9434],[34.1753,45.9442],[34.174,45.9444],[34.1746,45.9435],[34.1769,45.9434]]],[[[34.2126,45.9514],[34.2147,45.9526],[34.2138,45.9547],[34.2111,45.9536],[34.2126,45.9514]]],[[[34.2436,45.9971],[34.2456,45.9969],[34.2443,45.9983],[34.2439,45.9982],[34.2436,45.9971]]],[[[34.2407,45.9974],[34.2405,45.9985],[34.2389,45.9979],[34.2391,45.9971],[34.2407,45.9974]]],[[[34.2321,46.0077],[34.2334,46.0131],[34.2285,46.0161],[34.2272,46.0108],[34.2321,46.0077]]],[[[34.2375,46.0165],[34.2375,46.0174],[34.2362,46.0173],[34.2357,46.0163],[34.2375,46.0165]]],[[[34.2321,46.0168],[34.2339,46.0164],[34.2335,46.0178],[34.2323,46.0175],[34.2321,46.0168]]],[[[34.2299,46.017],[34.2292,46.018],[34.2272,46.0178],[34.2265,46.0174],[34.2299,46.017]]],[[[34.2407,46.0169],[34.2414,46.0183],[34.2398,46.0182],[34.2391,46.0172],[34.2407,46.0169]]],[[[34.2455,46.0214],[34.2471,46.0219],[34.2469,46.0231],[34.2453,46.0228],[34.2455,46.0214]]],[[[34.2463,46.0245],[34.2463,46.0256],[34.2447,46.0254],[34.2449,46.0243],[34.2463,46.0245]]],[[[34.247,46.0282],[34.2459,46.0279],[34.2459,46.0268],[34.2472,46.0267],[34.247,46.0282]]],[[[34.1408,46.0278],[34.1412,46.028],[34.1412,46.0286],[34.1397,46.028],[34.1408,46.0278]]],[[[34.2421,46.0287],[34.2428,46.0295],[34.2416,46.0301],[34.241,46.0298],[34.2421,46.0287]]],[[[34.1393,46.0308],[34.1379,46.0309],[34.1383,46.0296],[34.1392,46.0296],[34.1393,46.0308]]],[[[34.2435,46.0302],[34.2455,46.0293],[34.2456,46.033],[34.2433,46.0321],[34.2435,46.0302]]],[[[34.2534,46.0323],[34.2543,46.0325],[34.2541,46.0333],[34.253,46.0336],[34.2534,46.0323]]],[[[34.1371,46.0345],[34.1378,46.0349],[34.1371,46.0356],[34.136,46.0353],[34.1371,46.0345]]],[[[34.134,46.0362],[34.1342,46.0364],[34.1342,46.0372],[34.1328,46.0367],[34.134,46.0362]]],[[[34.2556,46.037],[34.2567,46.0372],[34.2563,46.0383],[34.2554,46.0381],[34.2556,46.037]]],[[[34.1318,46.0391],[34.1331,46.0392],[34.1336,46.0402],[34.1311,46.04],[34.1318,46.0391]]],[[[34.2541,46.0403],[34.2523,46.0402],[34.2522,46.0394],[34.254,46.0394],[34.2541,46.0403]]],[[[34.1257,46.0395],[34.1275,46.0399],[34.1259,46.0415],[34.125,46.0406],[34.1257,46.0395]]],[[[34.13,46.0412],[34.1302,46.0416],[34.1305,46.0424],[34.1289,46.0424],[34.13,46.0412]]],[[[34.1305,46.0441],[34.1294,46.0445],[34.1287,46.0438],[34.1303,46.0437],[34.1305,46.0441]]],[[[34.2068,46.0467],[34.2068,46.0457],[34.2079,46.046],[34.2082,46.0466],[34.2068,46.0467]]],[[[34.2102,46.0458],[34.2113,46.046],[34.2107,46.0471],[34.2088,46.0465],[34.2102,46.0458]]],[[[34.2037,46.0478],[34.2034,46.047],[34.2048,46.0467],[34.2048,46.0473],[34.2037,46.0478]]],[[[34.1992,46.0502],[34.2001,46.0495],[34.2008,46.0497],[34.2008,46.0506],[34.1992,46.0502]]],[[[34.1968,46.0507],[34.1986,46.051],[34.1988,46.0518],[34.1965,46.0512],[34.1968,46.0507]]],[[[34.2076,46.0501],[34.2098,46.0507],[34.2079,46.0525],[34.2034,46.0534],[34.2076,46.0501]]],[[[34.1428,46.0597],[34.1435,46.0599],[34.1435,46.0607],[34.1421,46.0607],[34.1428,46.0597]]],[[[34.1385,46.0613],[34.1403,46.0613],[34.1397,46.0624],[34.1386,46.0624],[34.1385,46.0613]]],[[[34.2236,46.0647],[34.2242,46.0647],[34.2244,46.0657],[34.2224,46.0665],[34.2236,46.0647]]],[[[34.1629,46.0694],[34.166,46.0694],[34.1663,46.0724],[34.1613,46.0701],[34.1629,46.0694]]],[[[34.067,46.0751],[34.0692,46.0702],[34.0693,46.0733],[34.0729,46.0752],[34.067,46.0751]]],[[[34.0866,46.0835],[34.0836,46.1024],[34.0729,46.1088],[34.083,46.0832],[34.0866,46.0835]]],[[[34.1846,46.1158],[34.1718,46.117],[34.1664,46.0958],[34.2035,46.073],[34.1925,46.0848],[34.2088,46.0807],[34.2165,46.1096],[34.1925,46.1023],[34.2028,46.1259],[34.1872,46.1267],[34.1801,46.1395],[34.1846,46.1158]]],[[[34.0428,46.1174],[34.0461,46.1167],[34.0434,46.1193],[34.0419,46.1194],[34.0428,46.1174]]],[[[34.2657,46.1011],[34.2743,46.1432],[34.2596,46.1399],[34.2598,46.1097],[34.2316,46.1106],[34.2424,46.1376],[34.2294,46.1618],[34.2495,46.1611],[34.236,46.188],[34.2184,46.1811],[34.2238,46.1565],[34.1939,46.1481],[34.2089,46.1145],[34.2418,46.0945],[34.2282,46.0643],[34.252,46.0641],[34.2479,46.0758],[34.2762,46.0896],[34.2742,46.1014],[34.2628,46.0845],[34.25,46.0885],[34.2639,46.0936],[34.255,46.1019],[34.2657,46.1011]]],[[[34.254,46.1257],[34.2549,46.1257],[34.2547,46.1269],[34.2534,46.1262],[34.254,46.1257]]],[[[34.256,46.127],[34.2569,46.1258],[34.2569,46.1263],[34.2586,46.1269],[34.256,46.127]]],[[[34.1179,46.1276],[34.1197,46.1276],[34.119,46.1293],[34.1172,46.1288],[34.1179,46.1276]]],[[[34.2554,46.1308],[34.2566,46.1299],[34.2576,46.1313],[34.2559,46.1321],[34.2554,46.1308]]],[[[34.1158,46.132],[34.1174,46.1302],[34.1185,46.1308],[34.1193,46.1331],[34.1158,46.132]]],[[[34.2569,46.1325],[34.2576,46.1325],[34.2565,46.1351],[34.2554,46.1348],[34.2569,46.1325]]],[[[34.1188,46.1354],[34.1201,46.1359],[34.121,46.1374],[34.1184,46.1368],[34.1188,46.1354]]],[[[34.2554,46.1456],[34.2558,46.1445],[34.2569,46.145],[34.2569,46.1455],[34.2554,46.1456]]],[[[34.2512,46.1471],[34.2547,46.1462],[34.2529,46.1495],[34.2507,46.1488],[34.2512,46.1471]]],[[[34.2575,46.1478],[34.2565,46.1513],[34.2546,46.1514],[34.2549,46.1482],[34.2575,46.1478]]],[[[34.255,46.1535],[34.2556,46.1529],[34.2563,46.1532],[34.2569,46.1541],[34.255,46.1535]]],[[[34.2464,46.1536],[34.2482,46.1531],[34.2484,46.1545],[34.2462,46.1545],[34.2464,46.1536]]],[[[34.2512,46.1533],[34.2526,46.1536],[34.253,46.1547],[34.2495,46.1535],[34.2512,46.1533]]],[[[34.2543,46.1555],[34.2534,46.1567],[34.2529,46.1573],[34.2507,46.1561],[34.2543,46.1555]]],[[[34.2496,46.1583],[34.2514,46.1579],[34.2542,46.1587],[34.2542,46.1596],[34.2496,46.1583]]],[[[34.2499,46.1658],[34.2532,46.1649],[34.2525,46.1675],[34.2499,46.1672],[34.2499,46.1658]]],[[[34.1308,46.1847],[34.1492,46.1671],[34.1408,46.1903],[34.1364,46.1918],[34.1308,46.1847]]],[[[34.3256,46.002],[34.3262,46.0012],[34.3269,46.0015],[34.3269,46.002],[34.3256,46.002]]],[[[34.3188,46.0011],[34.3215,46.0014],[34.3215,46.0034],[34.3179,46.0033],[34.3188,46.0011]]],[[[34.2866,46.0027],[34.2852,46.0037],[34.2841,46.0032],[34.2859,46.002],[34.2866,46.0027]]],[[[34.2999,46.0048],[34.3021,46.0033],[34.3019,46.0041],[34.3036,46.0058],[34.2999,46.0048]]],[[[34.283,46.0043],[34.2846,46.0046],[34.2837,46.0058],[34.2826,46.0056],[34.283,46.0043]]],[[[34.3169,46.0057],[34.3153,46.0065],[34.3148,46.0056],[34.3168,46.0043],[34.3169,46.0057]]],[[[34.3238,46.0047],[34.3256,46.0046],[34.3263,46.0056],[34.3234,46.0064],[34.3238,46.0047]]],[[[34.3207,46.0052],[34.3207,46.0061],[34.32,46.0061],[34.3198,46.0052],[34.3207,46.0052]]],[[[34.2822,46.0081],[34.2815,46.008],[34.2813,46.0064],[34.2826,46.0073],[34.2822,46.0081]]],[[[34.3182,46.0074],[34.3212,46.0071],[34.3185,46.0102],[34.3169,46.0096],[34.3182,46.0074]]],[[[34.3129,46.0095],[34.3135,46.0082],[34.3149,46.0087],[34.3149,46.0089],[34.3129,46.0095]]],[[[34.2797,46.0091],[34.2815,46.0094],[34.2816,46.0113],[34.2807,46.0113],[34.2797,46.0091]]],[[[34.2829,46.0097],[34.2838,46.01],[34.2841,46.0108],[34.2829,46.0108],[34.2829,46.0097]]],[[[34.3289,46.0103],[34.3305,46.0099],[34.3314,46.0115],[34.3299,46.0117],[34.3289,46.0103]]],[[[34.3222,46.0116],[34.3256,46.0117],[34.324,46.0133],[34.3215,46.0119],[34.3222,46.0116]]],[[[34.314,46.017],[34.3109,46.019],[34.3045,46.008],[34.3261,46.0145],[34.314,46.017]]],[[[34.3288,46.0161],[34.3315,46.0157],[34.33,46.0173],[34.3284,46.017],[34.3288,46.0161]]],[[[34.3063,46.0163],[34.3079,46.0168],[34.3072,46.0179],[34.3061,46.0174],[34.3063,46.0163]]],[[[34.3079,46.0188],[34.3095,46.019],[34.3095,46.0204],[34.3075,46.0199],[34.3079,46.0188]]],[[[34.3158,46.0194],[34.3181,46.0195],[34.3172,46.0212],[34.3159,46.0213],[34.3158,46.0194]]],[[[34.3192,46.0209],[34.3201,46.0209],[34.32,46.0223],[34.3188,46.0225],[34.3192,46.0209]]],[[[34.2917,46.0215],[34.294,46.022],[34.2922,46.0231],[34.2915,46.0226],[34.2917,46.0215]]],[[[34.3102,46.0274],[34.3091,46.0284],[34.3081,46.027],[34.3095,46.0271],[34.3102,46.0274]]],[[[34.3066,46.0278],[34.3068,46.0289],[34.3041,46.0288],[34.3032,46.0274],[34.3066,46.0278]]],[[[34.3009,46.0274],[34.3023,46.0293],[34.3019,46.0296],[34.2989,46.0287],[34.3009,46.0274]]],[[[34.2923,46.0278],[34.293,46.0283],[34.2926,46.0294],[34.2906,46.0288],[34.2923,46.0278]]],[[[34.3118,46.0292],[34.3122,46.0279],[34.3136,46.0287],[34.3136,46.0293],[34.3118,46.0292]]],[[[34.2908,46.0305],[34.2908,46.031],[34.2893,46.0313],[34.2888,46.0308],[34.2908,46.0305]]],[[[34.2874,46.0304],[34.2875,46.0318],[34.2861,46.0318],[34.2861,46.031],[34.2874,46.0304]]],[[[34.3134,46.0312],[34.3134,46.032],[34.3123,46.0318],[34.3129,46.0307],[34.3134,46.0312]]],[[[34.3375,46.0293],[34.3401,46.0334],[34.3227,46.0342],[34.3145,46.0298],[34.3375,46.0293]]],[[[34.2954,46.0333],[34.2984,46.034],[34.2948,46.0349],[34.2943,46.0347],[34.2954,46.0333]]],[[[34.3049,46.0333],[34.3034,46.0359],[34.3022,46.0357],[34.3038,46.0332],[34.3049,46.0333]]],[[[34.3148,46.0318],[34.3174,46.0371],[34.317,46.0381],[34.3113,46.0372],[34.3148,46.0318]]],[[[34.3124,46.0348],[34.3119,46.0358],[34.3101,46.0356],[34.3092,46.0344],[34.3124,46.0348]]],[[[34.2594,46.0387],[34.2599,46.0392],[34.2581,46.04],[34.2583,46.0386],[34.2594,46.0387]]],[[[34.2642,46.0415],[34.2651,46.0408],[34.2658,46.041],[34.2658,46.0419],[34.2642,46.0415]]],[[[34.2563,46.0403],[34.2624,46.041],[34.2598,46.0433],[34.2557,46.0414],[34.2563,46.0403]]],[[[34.2672,46.0436],[34.2668,46.0447],[34.2657,46.0444],[34.2656,46.0437],[34.2672,46.0436]]],[[[34.3061,46.097],[34.3076,46.0971],[34.3069,46.0982],[34.3059,46.0976],[34.3061,46.097]]],[[[34.3043,46.0979],[34.3054,46.0979],[34.3052,46.0994],[34.3036,46.0994],[34.3043,46.0979]]],[[[34.2977,46.1028],[34.3003,46.0999],[34.3009,46.1027],[34.2981,46.1033],[34.2977,46.1028]]],[[[34.3116,46.1081],[34.3032,46.1],[34.3109,46.0991],[34.313,46.104],[34.3116,46.1081]]],[[[34.2566,46.1379],[34.2567,46.1362],[34.2575,46.1365],[34.2584,46.137],[34.2566,46.1379]]],[[[34.257,46.1386],[34.2586,46.1388],[34.2587,46.1408],[34.2564,46.1392],[34.257,46.1386]]],[[[34.2574,46.142],[34.2587,46.1418],[34.2598,46.142],[34.2598,46.1426],[34.2574,46.142]]],[[[34.2569,46.1436],[34.2589,46.1434],[34.2589,46.1444],[34.2569,46.1443],[34.2569,46.1436]]],[[[34.2606,46.1451],[34.2593,46.1466],[34.2584,46.1461],[34.2584,46.1455],[34.2606,46.1451]]],[[[34.2676,46.1474],[34.268,46.1477],[34.2678,46.1485],[34.2665,46.148],[34.2676,46.1474]]],[[[34.2684,46.1496],[34.2689,46.1485],[34.2704,46.1491],[34.2704,46.1497],[34.2684,46.1496]]],[[[34.2658,46.1486],[34.2667,46.1488],[34.2667,46.1497],[34.2649,46.1489],[34.2658,46.1486]]],[[[34.2627,46.1513],[34.264,46.1516],[34.2631,46.1525],[34.262,46.1519],[34.2627,46.1513]]],[[[34.2677,46.1517],[34.2695,46.1508],[34.2698,46.1569],[34.2667,46.1567],[34.2677,46.1517]]],[[[34.2593,46.1545],[34.26,46.1534],[34.2622,46.1539],[34.2626,46.1545],[34.2593,46.1545]]],[[[34.2621,46.158],[34.257,46.1587],[34.2551,46.1581],[34.2584,46.1551],[34.2621,46.158]]],[[[34.2636,46.1589],[34.2658,46.16],[34.2614,46.1617],[34.2587,46.1613],[34.2636,46.1589]]],[[[34.3234,46.1818],[34.3277,46.1777],[34.3261,46.1797],[34.326,46.1845],[34.3234,46.1818]]],[[[34.3247,46.1851],[34.3247,46.1856],[34.3232,46.1857],[34.3236,46.1851],[34.3247,46.1851]]],[[[34.7027,45.7211],[34.7047,45.7209],[34.7036,45.7219],[34.7025,45.7214],[34.7027,45.7211]]],[[[34.6852,45.7229],[34.6873,45.7238],[34.688,45.7252],[34.6839,45.7234],[34.6852,45.7229]]],[[[34.6793,45.7252],[34.6829,45.7264],[34.6822,45.7272],[34.6786,45.7254],[34.6793,45.7252]]],[[[34.7286,45.7254],[34.7302,45.7273],[34.7291,45.7278],[34.7273,45.7254],[34.7286,45.7254]]],[[[34.7339,45.7299],[34.7371,45.7311],[34.7326,45.7307],[34.7323,45.7299],[34.7339,45.7299]]],[[[34.7431,45.7309],[34.7425,45.7315],[34.7387,45.7312],[34.738,45.7308],[34.7431,45.7309]]],[[[34.7791,45.7338],[34.7639,45.733],[34.7615,45.7309],[34.7778,45.7328],[34.7791,45.7338]]],[[[34.7616,45.7331],[34.7587,45.7344],[34.7522,45.7345],[34.7483,45.732],[34.7616,45.7331]]],[[[34.5072,45.7917],[34.511,45.7901],[34.5146,45.7921],[34.5149,45.7929],[34.5072,45.7917]]],[[[34.4924,45.7914],[34.4773,45.7916],[34.488,45.7885],[34.5003,45.7938],[34.5064,45.7969],[34.4924,45.7914]]],[[[34.4844,45.7977],[34.4762,45.7993],[34.4904,45.7921],[34.4959,45.7974],[34.4844,45.7977]]],[[[34.4968,45.7995],[34.4983,45.8038],[34.4931,45.8034],[34.4915,45.7999],[34.4968,45.7995]]],[[[34.5078,45.7988],[34.5095,45.8021],[34.5076,45.8051],[34.4975,45.7989],[34.5078,45.7988]]],[[[34.4881,45.8019],[34.4908,45.802],[34.4884,45.8045],[34.4871,45.8036],[34.4881,45.8019]]],[[[34.5472,45.807],[34.5458,45.8082],[34.5398,45.8079],[34.5391,45.8075],[34.5472,45.807]]],[[[34.548,45.807],[34.552,45.8056],[34.5603,45.8095],[34.5607,45.8105],[34.548,45.807]]],[[[34.7359,45.8241],[34.7325,45.8229],[34.7346,45.8235],[34.7359,45.8241]]],[[[34.7412,45.8264],[34.7392,45.8271],[34.7126,45.8248],[34.7091,45.8222],[34.7412,45.8264]]],[[[34.7474,45.8461],[34.7491,45.8569],[34.7264,45.8357],[34.7409,45.8382],[34.7474,45.8461]]],[[[34.6248,45.8498],[34.6273,45.8515],[34.6273,45.852],[34.6239,45.8495],[34.6248,45.8498]]],[[[34.7514,45.8581],[34.7521,45.8585],[34.7542,45.863],[34.7514,45.8641],[34.7514,45.8581]]],[[[34.619,45.9072],[34.6204,45.9075],[34.6215,45.9083],[34.6215,45.9086],[34.619,45.9072]]],[[[34.7784,45.9125],[34.7628,45.922],[34.7558,45.9297],[34.7634,45.9187],[34.7784,45.9125]]],[[[34.7592,45.9456],[34.7567,45.9347],[34.7684,45.9203],[34.7645,45.9261],[34.7604,45.9389],[34.7592,45.9456]]],[[[34.4331,45.9408],[34.4341,45.943],[34.4337,45.9451],[34.4275,45.9412],[34.4331,45.9408]]],[[[34.7561,45.9481],[34.7472,45.9553],[34.7437,45.9556],[34.7554,45.9304],[34.7561,45.9481]]],[[[34.4746,45.9466],[34.4777,45.9514],[34.4779,45.9543],[34.4714,45.9475],[34.4746,45.9466]]],[[[34.7533,45.9517],[34.7542,45.9523],[34.7522,45.9534],[34.7513,45.9536],[34.7533,45.9517]]],[[[34.7561,45.9508],[34.7572,45.9511],[34.7542,45.9546],[34.7518,45.9545],[34.7561,45.9508]]],[[[34.7435,45.9589],[34.7444,45.9615],[34.7392,45.9641],[34.7426,45.9582],[34.7435,45.9589]]],[[[34.4293,46.0018],[34.4556,45.9697],[34.4499,45.9878],[34.4485,46.0051],[34.4423,46.001],[34.4456,45.9869],[34.4293,46.0018]]],[[[34.737,45.9687],[34.7392,45.971],[34.7316,45.9778],[34.7331,45.9833],[34.7468,45.9749],[34.7591,45.9884],[34.7582,45.9753],[34.7611,45.9802],[34.7649,45.9994],[34.7227,45.9961],[34.6812,46.0124],[34.737,45.9687]]],[[[34.4299,46.0047],[34.428,46.0048],[34.4271,46.0027],[34.4306,46.0038],[34.4299,46.0047]]],[[[34.7548,46.0041],[34.7548,46.0054],[34.7532,46.005],[34.7537,46.0039],[34.7548,46.0041]]],[[[34.7591,46.0073],[34.7598,46.0059],[34.762,46.0066],[34.762,46.0072],[34.7591,46.0073]]],[[[34.3698,46.0206],[34.3718,46.0201],[34.3718,46.0219],[34.37,46.0214],[34.3698,46.0206]]],[[[34.4549,46.027],[34.4558,46.0265],[34.4562,46.0279],[34.4549,46.0282],[34.4549,46.027]]],[[[34.4584,46.0284],[34.4597,46.0284],[34.4599,46.0296],[34.4584,46.0296],[34.4584,46.0284]]],[[[34.4511,46.0303],[34.4525,46.03],[34.4529,46.0309],[34.4511,46.0309],[34.4511,46.0303]]],[[[34.4627,46.0316],[34.4605,46.0342],[34.4592,46.0334],[34.4601,46.0319],[34.4627,46.0316]]],[[[34.4722,46.0408],[34.4737,46.0408],[34.4739,46.0416],[34.4722,46.0413],[34.4722,46.0408]]],[[[34.471,46.0426],[34.4712,46.0434],[34.4686,46.0435],[34.4691,46.0429],[34.471,46.0426]]],[[[34.3374,46.0616],[34.3388,46.0614],[34.3401,46.0624],[34.3379,46.0629],[34.3374,46.0616]]],[[[34.4303,46.1202],[34.3952,46.0954],[34.4046,46.0612],[34.4105,46.0873],[34.4679,46.1224],[34.4303,46.1202]]],[[[34.6739,46.097],[34.6746,46.0983],[34.6735,46.0992],[34.6726,46.0973],[34.6739,46.097]]],[[[34.7724,46.135],[34.7738,46.1346],[34.7757,46.1352],[34.7762,46.1356],[34.7724,46.135]]],[[[34.7697,46.1437],[34.7655,46.1438],[34.7652,46.1392],[34.7704,46.1429],[34.7697,46.1437]]],[[[34.7587,46.1477],[34.7602,46.1526],[34.7516,46.153],[34.7532,46.146],[34.7587,46.1477]]],[[[34.7538,46.1536],[34.7547,46.1539],[34.7558,46.1553],[34.7531,46.1573],[34.7538,46.1536]]],[[[34.767,46.1514],[34.7724,46.1568],[34.769,46.1644],[34.7611,46.152],[34.767,46.1514]]],[[[34.7577,46.1578],[34.7595,46.1568],[34.759,46.1591],[34.7572,46.159],[34.7577,46.1578]]],[[[35.0141,45.3787],[35.0092,45.3794],[35.0078,45.3786],[35.0107,45.3773],[35.0141,45.3787]]],[[[35.0267,45.4129],[35.029,45.4084],[35.0276,45.4193],[35.0263,45.42],[35.0267,45.4129]]],[[[35.0269,45.5859],[35.0295,45.5844],[35.0285,45.5874],[35.0269,45.5874],[35.0269,45.5859]]],[[[34.9924,45.6488],[34.9931,45.6493],[34.9911,45.6503],[34.9898,45.6502],[34.9924,45.6488]]],[[[34.9894,45.6539],[34.9908,45.6542],[34.9904,45.6552],[34.9888,45.6558],[34.9894,45.6539]]],[[[34.9866,45.6568],[34.9884,45.6574],[34.9849,45.6653],[34.9842,45.6652],[34.9866,45.6568]]],[[[34.9728,45.6585],[34.9744,45.6595],[34.9725,45.6635],[34.9699,45.6646],[34.9728,45.6585]]],[[[34.9772,45.6763],[34.9843,45.655],[34.9894,45.6516],[34.9851,45.6579],[34.9827,45.6724],[34.983,45.6754],[34.9772,45.6763]]],[[[34.9672,45.6636],[34.9687,45.6642],[34.9672,45.6648],[34.9669,45.6641],[34.9672,45.6636]]],[[[34.9623,45.6671],[34.9658,45.6638],[34.9639,45.6673],[34.968,45.6697],[34.9623,45.6671]]],[[[34.9694,45.6712],[34.9704,45.6678],[34.9725,45.6695],[34.9702,45.6736],[34.9694,45.6712]]],[[[34.9685,45.6713],[34.9658,45.6711],[34.9631,45.6707],[34.969,45.6708],[34.9685,45.6713]]],[[[34.868,45.6731],[34.8693,45.6732],[34.8694,45.6745],[34.8685,45.6747],[34.868,45.6731]]],[[[34.9646,45.6734],[34.9666,45.673],[34.9664,45.6751],[34.9655,45.6752],[34.9646,45.6734]]],[[[34.8707,45.6754],[34.8703,45.6767],[34.869,45.6767],[34.8694,45.6753],[34.8707,45.6754]]],[[[34.8709,45.6787],[34.8715,45.6779],[34.8722,45.6785],[34.8722,45.6792],[34.8709,45.6787]]],[[[34.9681,45.6771],[34.9701,45.6772],[34.9694,45.6819],[34.9674,45.6837],[34.9681,45.6771]]],[[[34.9122,45.6805],[34.9113,45.6812],[34.9101,45.6806],[34.9115,45.6804],[34.9122,45.6805]]],[[[34.9821,45.6814],[34.9753,45.6848],[34.97,45.686],[34.9824,45.6776],[34.9821,45.6814]]],[[[34.9068,45.6816],[34.9084,45.6814],[34.9082,45.6822],[34.9066,45.683],[34.9068,45.6816]]],[[[34.9051,45.6827],[34.9049,45.6833],[34.9026,45.6832],[34.903,45.6821],[34.9051,45.6827]]],[[[34.8995,45.6825],[34.9004,45.6826],[34.9008,45.6834],[34.8995,45.6836],[34.8995,45.6825]]],[[[34.9683,45.6846],[34.9688,45.6849],[34.9686,45.6862],[34.9664,45.6869],[34.9683,45.6846]]],[[[34.8975,45.6849],[34.8989,45.6849],[34.8983,45.6869],[34.8965,45.6869],[34.8975,45.6849]]],[[[34.8945,45.6887],[34.8956,45.689],[34.8959,45.6896],[34.8943,45.6893],[34.8945,45.6887]]],[[[34.8262,45.8035],[34.8271,45.8035],[34.8273,45.8049],[34.8254,45.8081],[34.8262,45.8035]]],[[[34.7781,45.8835],[34.7795,45.8846],[34.7788,45.8857],[34.7772,45.8837],[34.7781,45.8835]]],[[[34.7874,45.8881],[34.7927,45.8984],[34.7717,45.8746],[34.7745,45.8762],[34.7874,45.8881]]],[[[34.7814,45.8882],[34.7814,45.8905],[34.7784,45.9008],[34.7726,45.9032],[34.7814,45.8882]]],[[[34.7811,45.9001],[34.7797,45.904],[34.7791,45.9016],[34.783,45.8984],[34.7811,45.9001]]],[[[34.7872,45.9146],[34.7848,45.9186],[34.7826,45.9105],[34.7852,45.911],[34.7872,45.9146]]],[[[34.8369,45.9136],[34.8378,45.9145],[34.8324,45.9241],[34.8252,45.9269],[34.8369,45.9136]]],[[[34.8349,45.9386],[34.8349,45.934],[34.8463,45.918],[34.8468,45.9232],[34.8422,45.9252],[34.8349,45.9386]]],[[[34.8468,45.9273],[34.8418,45.9329],[34.8468,45.9261],[34.8486,45.9259],[34.8468,45.9273]]],[[[34.8423,45.9309],[34.8392,45.9346],[34.8368,45.9354],[34.8438,45.9262],[34.8423,45.9309]]],[[[34.8403,45.9352],[34.8434,45.9344],[34.8399,45.9374],[34.8388,45.9374],[34.8403,45.9352]]],[[[34.8329,45.9433],[34.8264,45.9442],[34.8236,45.9459],[34.8325,45.9375],[34.8329,45.9433]]],[[[34.8467,45.9478],[34.8509,45.9463],[34.8476,45.9488],[34.8461,45.9515],[34.8467,45.9478]]],[[[34.8242,45.9488],[34.8282,45.9491],[34.8273,45.9502],[34.8238,45.9502],[34.8242,45.9488]]],[[[34.8544,45.9506],[34.8557,45.9513],[34.8557,45.9547],[34.8551,45.9551],[34.8544,45.9506]]],[[[34.826,45.9529],[34.8245,45.9554],[34.8236,45.9552],[34.8234,45.9514],[34.826,45.9529]]],[[[34.9644,45.7588],[34.9744,45.7627],[34.8617,45.9718],[34.8258,46.1397],[34.8176,46.1491],[34.797,46.1368],[34.8028,46.1206],[34.8162,46.1292],[34.819,46.1025],[34.7883,46.0728],[34.762,46.0897],[34.7623,46.106],[34.6712,46.1021],[34.6817,46.0912],[34.6714,46.0919],[34.7087,46.0824],[34.7072,46.0508],[34.7591,46.009],[34.7811,46.0536],[34.8117,46.0384],[34.8221,46.0036],[34.8334,46.0146],[34.8272,45.9747],[34.8428,45.9823],[34.8702,45.9331],[34.845,45.9478],[34.84,45.9593],[34.837,45.9573],[34.8581,45.9109],[34.8373,45.9124],[34.8402,45.8754],[34.816,45.8334],[34.8245,45.8095],[34.8205,45.8271],[34.8479,45.8214],[34.8752,45.8567],[34.8955,45.859],[34.9644,45.7588]]],[[[34.8483,45.9571],[34.8479,45.9587],[34.846,45.9631],[34.8451,45.9619],[34.8483,45.9571]]],[[[34.832,45.9611],[34.8294,45.9646],[34.8254,45.9615],[34.828,45.9598],[34.832,45.9611]]],[[[34.8171,45.9615],[34.8184,45.9615],[34.8191,45.9625],[34.82,45.9633],[34.8171,45.9615]]],[[[34.8198,45.9712],[34.8174,45.9683],[34.8206,45.9656],[34.8198,45.9724],[34.8198,45.9712]]],[[[34.8322,45.971],[34.8288,45.9729],[34.8266,45.9732],[34.8277,45.9714],[34.8322,45.971]]],[[[34.8192,45.9798],[34.8222,45.9784],[34.8205,45.9799],[34.8205,45.9854],[34.8192,45.9798]]],[[[34.8226,46.0022],[34.8247,45.9864],[34.828,45.9951],[34.828,46.0059],[34.8226,46.0022]]],[[[34.7885,46.1273],[34.7894,46.1272],[34.79,46.1286],[34.7887,46.1293],[34.7885,46.1273]]],[[[34.7877,46.1232],[34.7885,46.1305],[34.7891,46.1334],[34.7725,46.1303],[34.7877,46.1232]]],[[[34.7725,46.132],[34.7764,46.1326],[34.7781,46.1346],[34.7718,46.1329],[34.7725,46.132]]],[[[34.7902,46.1363],[34.7913,46.1305],[34.7958,46.1402],[34.7956,46.1423],[34.7902,46.1363]]],[[[34.7995,46.1431],[34.7973,46.1428],[34.7971,46.1394],[34.8037,46.1422],[34.7995,46.1431]]],[[[34.7783,46.1422],[34.7798,46.1419],[34.7824,46.1431],[34.7835,46.1442],[34.7783,46.1422]]],[[[34.803,46.1433],[34.8111,46.1474],[34.7982,46.1463],[34.7964,46.1432],[34.803,46.1433]]],[[[34.7999,46.163],[34.7946,46.1533],[34.781,46.1521],[34.7892,46.1442],[34.7748,46.1394],[34.7836,46.1349],[34.805,46.1573],[34.8141,46.1506],[34.7999,46.163]]],[[[34.8023,46.1495],[34.8003,46.1499],[34.7988,46.1484],[34.8023,46.1487],[34.8023,46.1495]]],[[[34.7644,46.1485],[34.78,46.1445],[34.7843,46.1471],[34.7799,46.1526],[34.7912,46.1586],[34.7644,46.1485]]],[[[35.3747,45.2602],[35.3764,45.2604],[35.3778,45.2635],[35.3652,45.2714],[35.3747,45.2602]]],[[[36.5833,45.2447],[36.5741,45.2489],[36.5258,45.2878],[36.5558,45.2556],[36.5833,45.2447]]],[[[35.4554,45.2738],[35.4615,45.2733],[35.4647,45.2766],[35.4639,45.2791],[35.4554,45.2738]]],[[[35.4431,45.3001],[35.4449,45.3003],[35.4393,45.3026],[35.4376,45.302],[35.4431,45.3001]]],[[[35.4389,45.3032],[35.4394,45.3038],[35.4385,45.3045],[35.4368,45.3033],[35.4389,45.3032]]],[[[35.4342,45.3036],[35.4359,45.3039],[35.436,45.3054],[35.4325,45.3046],[35.4342,45.3036]]],[[[35.4325,45.3055],[35.4325,45.3058],[35.4304,45.3062],[35.4312,45.3052],[35.4325,45.3055]]],[[[35.4292,45.308],[35.4305,45.3083],[35.4301,45.3089],[35.4287,45.3086],[35.4292,45.308]]],[[[35.4184,45.3095],[35.4184,45.3101],[35.4167,45.3104],[35.4166,45.3095],[35.4184,45.3095]]],[[[35.4258,45.3105],[35.4249,45.3112],[35.4241,45.3106],[35.4249,45.3103],[35.4258,45.3105]]],[[[35.3629,45.3385],[35.3647,45.3382],[35.3596,45.3505],[35.3577,45.3478],[35.3629,45.3385]]],[[[35.0683,45.3666],[35.073,45.3668],[35.0745,45.3671],[35.068,45.3725],[35.0683,45.3666]]],[[[35.0513,45.3848],[35.05,45.3867],[35.0429,45.3936],[35.0423,45.3937],[35.0513,45.3848]]],[[[35.0328,45.3967],[35.0352,45.3956],[35.032,45.4005],[35.0314,45.4007],[35.0328,45.3967]]],[[[35.0397,45.3961],[35.0417,45.3963],[35.035,45.4024],[35.0367,45.3986],[35.0397,45.3961]]],[[[35.0313,45.4178],[35.0311,45.4189],[35.0294,45.4208],[35.0288,45.4165],[35.0313,45.4178]]],[[[35.1056,45.4939],[35.106,45.4947],[35.1049,45.4954],[35.1025,45.4948],[35.1056,45.4939]]],[[[35.0966,45.5108],[35.0986,45.5106],[35.098,45.5123],[35.0964,45.513],[35.0966,45.5108]]],[[[35.0972,45.5216],[35.0951,45.5265],[35.0938,45.5271],[35.0932,45.5237],[35.0972,45.5216]]],[[[35.0965,45.5277],[35.0959,45.529],[35.0926,45.5297],[35.0916,45.5267],[35.0965,45.5277]]],[[[35.0881,45.5356],[35.0901,45.5348],[35.0867,45.5388],[35.0844,45.5393],[35.0881,45.5356]]],[[[35.0792,45.5365],[35.0795,45.5375],[35.0766,45.5402],[35.0778,45.5364],[35.0792,45.5365]]],[[[35.083,45.5377],[35.084,45.5385],[35.0814,45.5415],[35.0796,45.542],[35.083,45.5377]]],[[[35.0825,45.5423],[35.0843,45.5424],[35.0837,45.5441],[35.0833,45.5448],[35.0825,45.5423]]],[[[35.0802,45.5505],[35.0815,45.55],[35.082,45.5509],[35.0814,45.553],[35.0802,45.5505]]],[[[35.0772,45.5612],[35.0748,45.5618],[35.0728,45.5643],[35.0754,45.5608],[35.0772,45.5612]]],[[[35.062,45.5665],[35.0647,45.567],[35.0634,45.5701],[35.0621,45.5705],[35.062,45.5665]]],[[[35.0597,45.5669],[35.0615,45.5724],[35.06,45.5729],[35.0554,45.5711],[35.0597,45.5669]]],[[[35.0667,45.5677],[35.0676,45.5682],[35.0653,45.5723],[35.0635,45.5723],[35.0667,45.5677]]],[[[35.0619,45.576],[35.0614,45.5746],[35.0626,45.5766],[35.0595,45.5799],[35.0619,45.576]]],[[[35.0516,45.5843],[35.0481,45.5841],[35.0471,45.5833],[35.0489,45.5815],[35.0516,45.5843]]],[[[35.0576,45.5825],[35.0609,45.5816],[35.061,45.5824],[35.0582,45.585],[35.0576,45.5825]]],[[[35.0554,45.5838],[35.0566,45.5841],[35.054,45.5871],[35.0515,45.5856],[35.0554,45.5838]]],[[[35.0438,45.5846],[35.0428,45.5867],[35.0397,45.5872],[35.0423,45.5845],[35.0438,45.5846]]],[[[35.0333,45.584],[35.0342,45.5842],[35.0328,45.5898],[35.0295,45.5894],[35.0333,45.584]]],[[[35.0495,45.5875],[35.0478,45.5893],[35.0449,45.5888],[35.0463,45.5857],[35.0495,45.5875]]],[[[35.0988,45.5882],[35.0971,45.5906],[35.0931,45.5906],[35.095,45.5882],[35.0988,45.5882]]],[[[35.0442,45.5893],[35.0445,45.5898],[35.0428,45.5923],[35.0402,45.5889],[35.0442,45.5893]]],[[[35.0953,45.5859],[35.0869,45.6005],[35.0878,45.5948],[35.0953,45.5859]]],[[[35.0346,45.59],[35.038,45.5902],[35.0393,45.5965],[35.0362,45.5951],[35.0346,45.59]]],[[[35.0477,45.5918],[35.0499,45.5914],[35.0496,45.5946],[35.0482,45.5952],[35.0477,45.5918]]],[[[35.0321,45.5935],[35.0332,45.5936],[35.0344,45.595],[35.0333,45.5955],[35.0321,45.5935]]],[[[35.0399,45.5995],[35.041,45.5996],[35.0426,45.6011],[35.0411,45.6032],[35.0399,45.5995]]],[[[35.0393,45.6009],[35.0394,45.6037],[35.0369,45.6036],[35.0362,45.6025],[35.0393,45.6009]]],[[[35.0882,45.6035],[35.0882,45.6041],[35.0864,45.6046],[35.0859,45.6038],[35.0882,45.6035]]],[[[35.0429,45.6033],[35.0443,45.6039],[35.0439,45.6054],[35.0423,45.604],[35.0429,45.6033]]],[[[35.0841,45.6029],[35.0852,45.6019],[35.0848,45.6085],[35.0837,45.6106],[35.0841,45.6029]]],[[[35.0435,45.6069],[35.0442,45.6071],[35.0459,45.6108],[35.0423,45.6117],[35.0435,45.6069]]],[[[35.0402,45.6078],[35.0424,45.6076],[35.0374,45.6113],[35.0358,45.6108],[35.0402,45.6078]]],[[[35.2686,46.2503],[35.2249,46.222],[35.2122,46.1876],[35.0365,46.1438],[35.0877,46.1438],[35.0281,46.1357],[35.041,46.1231],[35.0152,46.1142],[35.026,46.1046],[34.9898,46.1032],[35.0011,46.0909],[34.9857,46.0788],[35.1435,46.1225],[35.1882,46.1517],[35.2387,46.2163],[35.2686,46.2503]]],[[[36.7655,46.6659],[36.7685,46.6688],[36.7686,46.6731],[36.7645,46.6668],[36.7655,46.6659]]],[[[36.8,46.6776],[36.8042,46.6815],[36.8025,46.6837],[36.8038,46.7013],[36.8,46.6776]]],[[[37.6841,47.0766],[37.6812,47.0768],[37.6751,47.079],[37.6817,47.0758],[37.6841,47.0766]]]]},"properties":{"id":"UA","name":"Україна","name_en":"Ukraine","admin_level":0}}
]}